ArticleId,Name_x,Address,District,Institution Type,Women,Minority,Random,Name_y,State,Programme,University,Level of Course,Course,Shift,FullTime/PartTime,Intake,Enrollment,Placement
1-7001642452,UNIVERSITY INSTITUTE OF TECHNOLOGY RGPV SHAHDOL,"VILLAGE CHHATWAI, TEHSIL SUHAGPUR, DISTT.: SHAHDOL (M.P.)  484001",SHAHDOL,Government,N,N,1-4839845501,UNIVERSITY INSTITUTE OF TECHNOLOGY RGPV SHAHDOL,Madhya Pradesh,ENGINEERING AND TECHNOLOGY,"Rajiv Gandhi Proudyogiki Vishwavidyalaya, Bhopal",UNDER GRADUATE,MECHANICAL ENGINEERING,1st Shift,FULL TIME,60,,
1-7001642452,UNIVERSITY INSTITUTE OF TECHNOLOGY RGPV SHAHDOL,"VILLAGE CHHATWAI, TEHSIL SUHAGPUR, DISTT.: SHAHDOL (M.P.)  484001",SHAHDOL,Government,N,N,1-4839845501,UNIVERSITY INSTITUTE OF TECHNOLOGY RGPV SHAHDOL,Madhya Pradesh,ENGINEERING AND TECHNOLOGY,"Rajiv Gandhi Proudyogiki Vishwavidyalaya, Bhopal",UNDER GRADUATE,MINING ENGINEERING,1st Shift,FULL TIME,60,,
1-7001710190,MILLENNIUM INSTITUTE OF TECHNOLOGY,"NATHU BARKHERA ROAD, NEAR NEELBAD, BHOPAL",BHOPAL,Private-Self Financing,N,N,1-11405511,MILLENNIUM INSTITUTE OF TECHNOLOGY,Madhya Pradesh,ENGINEERING AND TECHNOLOGY,"Rajiv Gandhi Proudyogiki Vishwavidyalaya, Bhopal",DIPLOMA,AIRCRAFT MAINTENANCE ENGINEERING,1st Shift,FULL TIME,60,,
1-7001710190,MILLENNIUM INSTITUTE OF TECHNOLOGY,"NATHU BARKHERA ROAD, NEAR NEELBAD, BHOPAL",BHOPAL,Private-Self Financing,N,N,1-11405511,MILLENNIUM INSTITUTE OF TECHNOLOGY,Madhya Pradesh,ENGINEERING AND TECHNOLOGY,"Rajiv Gandhi Proudyogiki Vishwavidyalaya, Bhopal",DIPLOMA,CIVIL ENGINEERING,1st Shift,FULL TIME,120,,
1-7001710190,MILLENNIUM INSTITUTE OF TECHNOLOGY,"NATHU BARKHERA ROAD, NEAR NEELBAD, BHOPAL",BHOPAL,Private-Self Financing,N,N,1-11405511,MILLENNIUM INSTITUTE OF TECHNOLOGY,Madhya Pradesh,ENGINEERING AND TECHNOLOGY,"Rajiv Gandhi Proudyogiki Vishwavidyalaya, Bhopal",DIPLOMA,MECHANICAL ENGINEERING,1st Shift,FULL TIME,60,,
1-7001710190,MILLENNIUM INSTITUTE OF TECHNOLOGY,"NATHU BARKHERA ROAD, NEAR NEELBAD, BHOPAL",BHOPAL,Private-Self Financing,N,N,1-11405511,MILLENNIUM INSTITUTE OF TECHNOLOGY,Madhya Pradesh,ENGINEERING AND TECHNOLOGY,"Rajiv Gandhi Proudyogiki Vishwavidyalaya, Bhopal",POST GRADUATE,COMPUTER SCIENCE & ENGINEERING,1st Shift,FULL TIME,18,,
1-7001710190,MILLENNIUM INSTITUTE OF TECHNOLOGY,"NATHU BARKHERA ROAD, NEAR NEELBAD, BHOPAL",BHOPAL,Private-Self Financing,N,N,1-11405511,MILLENNIUM INSTITUTE OF TECHNOLOGY,Madhya Pradesh,ENGINEERING AND TECHNOLOGY,"Rajiv Gandhi Proudyogiki Vishwavidyalaya, Bhopal",POST GRADUATE,CONSTRUCTION TECHNOLOGY AND MANAGEMENT,1st Shift,FULL TIME,24,,
1-7001710190,MILLENNIUM INSTITUTE OF TECHNOLOGY,"NATHU BARKHERA ROAD, NEAR NEELBAD, BHOPAL",BHOPAL,Private-Self Financing,N,N,1-11405511,MILLENNIUM INSTITUTE OF TECHNOLOGY,Madhya Pradesh,ENGINEERING AND TECHNOLOGY,"Rajiv Gandhi Proudyogiki Vishwavidyalaya, Bhopal",POST GRADUATE,MACHINE DESIGN,1st Shift,FULL TIME,24,,
1-7001710190,MILLENNIUM INSTITUTE OF TECHNOLOGY,"NATHU BARKHERA ROAD, NEAR NEELBAD, BHOPAL",BHOPAL,Private-Self Financing,N,N,1-11405511,MILLENNIUM INSTITUTE OF TECHNOLOGY,Madhya Pradesh,ENGINEERING AND TECHNOLOGY,"Rajiv Gandhi Proudyogiki Vishwavidyalaya, Bhopal",POST GRADUATE,THERMAL ENGINEERING,1st Shift,FULL TIME,18,,
1-7001710190,MILLENNIUM INSTITUTE OF TECHNOLOGY,"NATHU BARKHERA ROAD, NEAR NEELBAD, BHOPAL",BHOPAL,Private-Self Financing,N,N,1-11405511,MILLENNIUM INSTITUTE OF TECHNOLOGY,Madhya Pradesh,ENGINEERING AND TECHNOLOGY,"Rajiv Gandhi Proudyogiki Vishwavidyalaya, Bhopal",UNDER GRADUATE,ARTIFICIAL INTELLIGENCE AND DATA SCIENCE,1st Shift,FULL TIME,30,,
1-7001710190,MILLENNIUM INSTITUTE OF TECHNOLOGY,"NATHU BARKHERA ROAD, NEAR NEELBAD, BHOPAL",BHOPAL,Private-Self Financing,N,N,1-11405511,MILLENNIUM INSTITUTE OF TECHNOLOGY,Madhya Pradesh,ENGINEERING AND TECHNOLOGY,"Rajiv Gandhi Proudyogiki Vishwavidyalaya, Bhopal",UNDER GRADUATE,CIVIL ENGINEERING,1st Shift,FULL TIME,90,,
1-7001710190,MILLENNIUM INSTITUTE OF TECHNOLOGY,"NATHU BARKHERA ROAD, NEAR NEELBAD, BHOPAL",BHOPAL,Private-Self Financing,N,N,1-11405511,MILLENNIUM INSTITUTE OF TECHNOLOGY,Madhya Pradesh,ENGINEERING AND TECHNOLOGY,"Rajiv Gandhi Proudyogiki Vishwavidyalaya, Bhopal",UNDER GRADUATE,COMPUTER SCIENCE AND ENGINEERING,1st Shift,FULL TIME,90,,
1-7001710190,MILLENNIUM INSTITUTE OF TECHNOLOGY,"NATHU BARKHERA ROAD, NEAR NEELBAD, BHOPAL",BHOPAL,Private-Self Financing,N,N,1-11405511,MILLENNIUM INSTITUTE OF TECHNOLOGY,Madhya Pradesh,ENGINEERING AND TECHNOLOGY,"Rajiv Gandhi Proudyogiki Vishwavidyalaya, Bhopal",UNDER GRADUATE,MECHANICAL ENGINEERING,1st Shift,FULL TIME,90,,
1-7001710190,MILLENNIUM INSTITUTE OF TECHNOLOGY,"NATHU BARKHERA ROAD, NEAR NEELBAD, BHOPAL",BHOPAL,Private-Self Financing,N,N,1-11405511,MILLENNIUM INSTITUTE OF TECHNOLOGY,Madhya Pradesh,MANAGEMENT,"Barkatullah University, Bhopal",POST GRADUATE,MBA,1st Shift,FULL TIME,180,,
1-7001710190,MILLENNIUM INSTITUTE OF TECHNOLOGY,"NATHU BARKHERA ROAD, NEAR NEELBAD, BHOPAL",BHOPAL,Private-Self Financing,N,N,1-11405511,MILLENNIUM INSTITUTE OF TECHNOLOGY,Madhya Pradesh,MANAGEMENT,"Barkatullah University, Bhopal",POST GRADUATE,MBA,1st Shift,FULL TIME,120,,
1-7001753731,INDORE INSTITUTE OF SCIENCE AND TECHNOLOGY,"DEHRI, OPP IIM, PITHAMPUR ROAD, RAU, INDORE, MADHYA PRADESH",INDORE,Private-Self Financing,N,N,1-4279771,INDORE INSTITUTE OF SCIENCE AND TECHNOLOGY,Madhya Pradesh,ENGINEERING AND TECHNOLOGY,"Rajiv Gandhi Proudyogiki Vishwavidyalaya, Bhopal",POST GRADUATE,COMPUTER SCIENCE AND ENGINEERING,1st Shift,FULL TIME,18,,
1-7001753731,INDORE INSTITUTE OF SCIENCE AND TECHNOLOGY,"DEHRI, OPP IIM, PITHAMPUR ROAD, RAU, INDORE, MADHYA PRADESH",INDORE,Private-Self Financing,N,N,1-4279771,INDORE INSTITUTE OF SCIENCE AND TECHNOLOGY,Madhya Pradesh,ENGINEERING AND TECHNOLOGY,"Rajiv Gandhi Proudyogiki Vishwavidyalaya, Bhopal",POST GRADUATE,DIGITAL COMMUNICATIONS,1st Shift,FULL TIME,9,,
1-7001753731,INDORE INSTITUTE OF SCIENCE AND TECHNOLOGY,"DEHRI, OPP IIM, PITHAMPUR ROAD, RAU, INDORE, MADHYA PRADESH",INDORE,Private-Self Financing,N,N,1-4279771,INDORE INSTITUTE OF SCIENCE AND TECHNOLOGY,Madhya Pradesh,ENGINEERING AND TECHNOLOGY,"Rajiv Gandhi Proudyogiki Vishwavidyalaya, Bhopal",POST GRADUATE,MACHINE DESIGN,1st Shift,FULL TIME,18,,
1-7001753731,INDORE INSTITUTE OF SCIENCE AND TECHNOLOGY,"DEHRI, OPP IIM, PITHAMPUR ROAD, RAU, INDORE, MADHYA PRADESH",INDORE,Private-Self Financing,N,N,1-4279771,INDORE INSTITUTE OF SCIENCE AND TECHNOLOGY,Madhya Pradesh,ENGINEERING AND TECHNOLOGY,"Rajiv Gandhi Proudyogiki Vishwavidyalaya, Bhopal",UNDER GRADUATE,CHEMICAL ENGINEERING,1st Shift,FULL TIME,60,,
1-7001753731,INDORE INSTITUTE OF SCIENCE AND TECHNOLOGY,"DEHRI, OPP IIM, PITHAMPUR ROAD, RAU, INDORE, MADHYA PRADESH",INDORE,Private-Self Financing,N,N,1-4279771,INDORE INSTITUTE OF SCIENCE AND TECHNOLOGY,Madhya Pradesh,ENGINEERING AND TECHNOLOGY,"Rajiv Gandhi Proudyogiki Vishwavidyalaya, Bhopal",UNDER GRADUATE,CIVIL ENGINEERING,1st Shift,FULL TIME,60,,
1-7001753731,INDORE INSTITUTE OF SCIENCE AND TECHNOLOGY,"DEHRI, OPP IIM, PITHAMPUR ROAD, RAU, INDORE, MADHYA PRADESH",INDORE,Private-Self Financing,N,N,1-4279771,INDORE INSTITUTE OF SCIENCE AND TECHNOLOGY,Madhya Pradesh,ENGINEERING AND TECHNOLOGY,"Rajiv Gandhi Proudyogiki Vishwavidyalaya, Bhopal",UNDER GRADUATE,COMPUTER SCIENCE AND ENGINEERING,1st Shift,FULL TIME,180,,
1-7001753731,INDORE INSTITUTE OF SCIENCE AND TECHNOLOGY,"DEHRI, OPP IIM, PITHAMPUR ROAD, RAU, INDORE, MADHYA PRADESH",INDORE,Private-Self Financing,N,N,1-4279771,INDORE INSTITUTE OF SCIENCE AND TECHNOLOGY,Madhya Pradesh,ENGINEERING AND TECHNOLOGY,"Rajiv Gandhi Proudyogiki Vishwavidyalaya, Bhopal",UNDER GRADUATE,ELECTRONICS & COMMUNICATION ENGG,1st Shift,FULL TIME,60,,
1-7001753731,INDORE INSTITUTE OF SCIENCE AND TECHNOLOGY,"DEHRI, OPP IIM, PITHAMPUR ROAD, RAU, INDORE, MADHYA PRADESH",INDORE,Private-Self Financing,N,N,1-4279771,INDORE INSTITUTE OF SCIENCE AND TECHNOLOGY,Madhya Pradesh,ENGINEERING AND TECHNOLOGY,"Rajiv Gandhi Proudyogiki Vishwavidyalaya, Bhopal",UNDER GRADUATE,INFORMATION TECHNOLOGY,1st Shift,FULL TIME,60,,
1-7001753731,INDORE INSTITUTE OF SCIENCE AND TECHNOLOGY,"DEHRI, OPP IIM, PITHAMPUR ROAD, RAU, INDORE, MADHYA PRADESH",INDORE,Private-Self Financing,N,N,1-4279771,INDORE INSTITUTE OF SCIENCE AND TECHNOLOGY,Madhya Pradesh,ENGINEERING AND TECHNOLOGY,"Rajiv Gandhi Proudyogiki Vishwavidyalaya, Bhopal",UNDER GRADUATE,MECHANICAL ENGINEERING,1st Shift,FULL TIME,120,,
1-7001835698,TECHNOCRATS INSTITUTE OF TECHNOLOGY-ADVANCE,"INFRONT OF HATHAIKHEDA DAM, POST PIPLANI, P.B.NO-24, BHEL",BHOPAL,Private-Self Financing,N,N,1-9460541,TECHNOCRATS INSTITUTE OF TECHNOLOGY-ADVANCE,Madhya Pradesh,ENGINEERING AND TECHNOLOGY,"Rajiv Gandhi Proudyogiki Vishwavidyalaya, Bhopal",POST GRADUATE,COMPUTER SCIENCE AND ENGINEERING(ARTIFICIAL INTELLIGENCE AND MACHINE LEARNING),1st Shift,FULL TIME,30,,
1-7001835698,TECHNOCRATS INSTITUTE OF TECHNOLOGY-ADVANCE,"INFRONT OF HATHAIKHEDA DAM, POST PIPLANI, P.B.NO-24, BHEL",BHOPAL,Private-Self Financing,N,N,1-9460541,TECHNOCRATS INSTITUTE OF TECHNOLOGY-ADVANCE,Madhya Pradesh,ENGINEERING AND TECHNOLOGY,"Rajiv Gandhi Proudyogiki Vishwavidyalaya, Bhopal",POST GRADUATE,COMPUTER SCIENCE AND ENGINEERING(ARTIFICIAL INTELLIGENCE AND MACHINE LEARNING),1st Shift,FULL TIME,30,,
1-7001835698,TECHNOCRATS INSTITUTE OF TECHNOLOGY-ADVANCE,"INFRONT OF HATHAIKHEDA DAM, POST PIPLANI, P.B.NO-24, BHEL",BHOPAL,Private-Self Financing,N,N,1-9460541,TECHNOCRATS INSTITUTE OF TECHNOLOGY-ADVANCE,Madhya Pradesh,ENGINEERING AND TECHNOLOGY,"Rajiv Gandhi Proudyogiki Vishwavidyalaya, Bhopal",POST GRADUATE,CONSTRUCTION TECHNOLOGY,1st Shift,FULL TIME,30,,
1-7001835698,TECHNOCRATS INSTITUTE OF TECHNOLOGY-ADVANCE,"INFRONT OF HATHAIKHEDA DAM, POST PIPLANI, P.B.NO-24, BHEL",BHOPAL,Private-Self Financing,N,N,1-9460541,TECHNOCRATS INSTITUTE OF TECHNOLOGY-ADVANCE,Madhya Pradesh,ENGINEERING AND TECHNOLOGY,"Rajiv Gandhi Proudyogiki Vishwavidyalaya, Bhopal",UNDER GRADUATE,CIVIL ENGINEERING,1st Shift,FULL TIME,60,,
1-7001835698,TECHNOCRATS INSTITUTE OF TECHNOLOGY-ADVANCE,"INFRONT OF HATHAIKHEDA DAM, POST PIPLANI, P.B.NO-24, BHEL",BHOPAL,Private-Self Financing,N,N,1-9460541,TECHNOCRATS INSTITUTE OF TECHNOLOGY-ADVANCE,Madhya Pradesh,ENGINEERING AND TECHNOLOGY,"Rajiv Gandhi Proudyogiki Vishwavidyalaya, Bhopal",UNDER GRADUATE,COMPUTER SCIENCE AND ENGINEERING,1st Shift,FULL TIME,120,,
1-7001835698,TECHNOCRATS INSTITUTE OF TECHNOLOGY-ADVANCE,"INFRONT OF HATHAIKHEDA DAM, POST PIPLANI, P.B.NO-24, BHEL",BHOPAL,Private-Self Financing,N,N,1-9460541,TECHNOCRATS INSTITUTE OF TECHNOLOGY-ADVANCE,Madhya Pradesh,ENGINEERING AND TECHNOLOGY,"Rajiv Gandhi Proudyogiki Vishwavidyalaya, Bhopal",UNDER GRADUATE,COMPUTER SCIENCE AND ENGINEERING(ARTIFICIAL INTELLIGENCE AND MACHINE LEARNING),1st Shift,FULL TIME,60,,
1-7001835698,TECHNOCRATS INSTITUTE OF TECHNOLOGY-ADVANCE,"INFRONT OF HATHAIKHEDA DAM, POST PIPLANI, P.B.NO-24, BHEL",BHOPAL,Private-Self Financing,N,N,1-9460541,TECHNOCRATS INSTITUTE OF TECHNOLOGY-ADVANCE,Madhya Pradesh,ENGINEERING AND TECHNOLOGY,"Rajiv Gandhi Proudyogiki Vishwavidyalaya, Bhopal",UNDER GRADUATE,MECHANICAL ENGINEERING,1st Shift,FULL TIME,60,,
1-7001840270,GYAN GANGA COLLEGE OF TECHNOLOGY,"P.O. TILWARA GHAT, GARHA
NEAR SHAH NALA, TRIPURI WARD,
JABALPUR
482003
MADHYA PRADESH",JABALPUR,Private-Self Financing,N,N,1-8424969,GYAN GANGA COLLEGE OF TECHNOLOGY,Madhya Pradesh,ENGINEERING AND TECHNOLOGY,"Rajiv Gandhi Proudyogiki Vishwavidyalaya, Bhopal",DIPLOMA,CIVIL ENGINEERING,1st Shift,FULL TIME,60,,
1-7001840270,GYAN GANGA COLLEGE OF TECHNOLOGY,"P.O. TILWARA GHAT, GARHA
NEAR SHAH NALA, TRIPURI WARD,
JABALPUR
482003
MADHYA PRADESH",JABALPUR,Private-Self Financing,N,N,1-8424969,GYAN GANGA COLLEGE OF TECHNOLOGY,Madhya Pradesh,ENGINEERING AND TECHNOLOGY,"Rajiv Gandhi Proudyogiki Vishwavidyalaya, Bhopal",DIPLOMA,Computer Science and Engineering,1st Shift,FULL TIME,60,,
1-7001840270,GYAN GANGA COLLEGE OF TECHNOLOGY,"P.O. TILWARA GHAT, GARHA
NEAR SHAH NALA, TRIPURI WARD,
JABALPUR
482003
MADHYA PRADESH",JABALPUR,Private-Self Financing,N,N,1-8424969,GYAN GANGA COLLEGE OF TECHNOLOGY,Madhya Pradesh,ENGINEERING AND TECHNOLOGY,"Rajiv Gandhi Proudyogiki Vishwavidyalaya, Bhopal",DIPLOMA,ELECTRONICS AND COMMUNICATIONS ENGINEERING,1st Shift,FULL TIME,60,,
1-7001840270,GYAN GANGA COLLEGE OF TECHNOLOGY,"P.O. TILWARA GHAT, GARHA
NEAR SHAH NALA, TRIPURI WARD,
JABALPUR
482003
MADHYA PRADESH",JABALPUR,Private-Self Financing,N,N,1-8424969,GYAN GANGA COLLEGE OF TECHNOLOGY,Madhya Pradesh,ENGINEERING AND TECHNOLOGY,"Rajiv Gandhi Proudyogiki Vishwavidyalaya, Bhopal",DIPLOMA,MECHANICAL ENGINEERING,1st Shift,FULL TIME,60,,
1-7001840270,GYAN GANGA COLLEGE OF TECHNOLOGY,"P.O. TILWARA GHAT, GARHA
NEAR SHAH NALA, TRIPURI WARD,
JABALPUR
482003
MADHYA PRADESH",JABALPUR,Private-Self Financing,N,N,1-8424969,GYAN GANGA COLLEGE OF TECHNOLOGY,Madhya Pradesh,ENGINEERING AND TECHNOLOGY,"Rajiv Gandhi Proudyogiki Vishwavidyalaya, Bhopal",UNDER GRADUATE,CIVIL ENGINEERING,1st Shift,FULL TIME,60,,
1-7001840270,GYAN GANGA COLLEGE OF TECHNOLOGY,"P.O. TILWARA GHAT, GARHA
NEAR SHAH NALA, TRIPURI WARD,
JABALPUR
482003
MADHYA PRADESH",JABALPUR,Private-Self Financing,N,N,1-8424969,GYAN GANGA COLLEGE OF TECHNOLOGY,Madhya Pradesh,ENGINEERING AND TECHNOLOGY,"Rajiv Gandhi Proudyogiki Vishwavidyalaya, Bhopal",UNDER GRADUATE,COMPUTER SCIENCE AND ENGINEERING,1st Shift,FULL TIME,180,,
1-7001840270,GYAN GANGA COLLEGE OF TECHNOLOGY,"P.O. TILWARA GHAT, GARHA
NEAR SHAH NALA, TRIPURI WARD,
JABALPUR
482003
MADHYA PRADESH",JABALPUR,Private-Self Financing,N,N,1-8424969,GYAN GANGA COLLEGE OF TECHNOLOGY,Madhya Pradesh,ENGINEERING AND TECHNOLOGY,"Rajiv Gandhi Proudyogiki Vishwavidyalaya, Bhopal",UNDER GRADUATE,ELECTRONICS AND COMMUNICATIONS ENGINEERING,1st Shift,FULL TIME,60,,
1-7001840270,GYAN GANGA COLLEGE OF TECHNOLOGY,"P.O. TILWARA GHAT, GARHA
NEAR SHAH NALA, TRIPURI WARD,
JABALPUR
482003
MADHYA PRADESH",JABALPUR,Private-Self Financing,N,N,1-8424969,GYAN GANGA COLLEGE OF TECHNOLOGY,Madhya Pradesh,ENGINEERING AND TECHNOLOGY,"Rajiv Gandhi Proudyogiki Vishwavidyalaya, Bhopal",UNDER GRADUATE,MECHANICAL ENGINEERING,1st Shift,FULL TIME,60,,
1-7001840270,GYAN GANGA COLLEGE OF TECHNOLOGY,"P.O. TILWARA GHAT, GARHA
NEAR SHAH NALA, TRIPURI WARD,
JABALPUR
482003
MADHYA PRADESH",JABALPUR,Private-Self Financing,N,N,1-8424969,GYAN GANGA COLLEGE OF TECHNOLOGY,Madhya Pradesh,MANAGEMENT,"Rani Durgavati Vishwavidyalaya, Jabalpur",POST GRADUATE,MBA,1st Shift,FULL TIME,120,,
1-7001840270,GYAN GANGA COLLEGE OF TECHNOLOGY,"P.O. TILWARA GHAT, GARHA
NEAR SHAH NALA, TRIPURI WARD,
JABALPUR
482003
MADHYA PRADESH",JABALPUR,Private-Self Financing,N,N,1-8424969,GYAN GANGA COLLEGE OF TECHNOLOGY,Madhya Pradesh,MCA,"Rajiv Gandhi Proudyogiki Vishwavidyalaya, Bhopal",POST GRADUATE,MASTERS IN COMPUTER APPLICATIONS,1st Shift,FULL TIME,60,,
1-7001929580,IASSCOM FORTUNE INSTITUTE OF TECHNOLOGY,GRAM RASULIA GOSAI RATIBAD SIKANDARABAD ROAD BHOPAL,BHOPAL,Private-Self Financing,N,N,1-28713251,IASSCOM FORTUNE INSTITUTE OF TECHNOLOGY,Madhya Pradesh,ENGINEERING AND TECHNOLOGY,"Rajiv Gandhi Proudyogiki Vishwavidyalaya, Bhopal",POST GRADUATE,COMPUTER SCIENCE & ENGINEERING,1st Shift,FULL TIME,18,,
1-7001929580,IASSCOM FORTUNE INSTITUTE OF TECHNOLOGY,GRAM RASULIA GOSAI RATIBAD SIKANDARABAD ROAD BHOPAL,BHOPAL,Private-Self Financing,N,N,1-28713251,IASSCOM FORTUNE INSTITUTE OF TECHNOLOGY,Madhya Pradesh,ENGINEERING AND TECHNOLOGY,"Rajiv Gandhi Proudyogiki Vishwavidyalaya, Bhopal",POST GRADUATE,DIGITAL COMMUNICATION,1st Shift,FULL TIME,18,,
1-7001929580,IASSCOM FORTUNE INSTITUTE OF TECHNOLOGY,GRAM RASULIA GOSAI RATIBAD SIKANDARABAD ROAD BHOPAL,BHOPAL,Private-Self Financing,N,N,1-28713251,IASSCOM FORTUNE INSTITUTE OF TECHNOLOGY,Madhya Pradesh,ENGINEERING AND TECHNOLOGY,"Rajiv Gandhi Proudyogiki Vishwavidyalaya, Bhopal",UNDER GRADUATE,CIVIL ENGINEERING,1st Shift,FULL TIME,60,,
1-7001929580,IASSCOM FORTUNE INSTITUTE OF TECHNOLOGY,GRAM RASULIA GOSAI RATIBAD SIKANDARABAD ROAD BHOPAL,BHOPAL,Private-Self Financing,N,N,1-28713251,IASSCOM FORTUNE INSTITUTE OF TECHNOLOGY,Madhya Pradesh,ENGINEERING AND TECHNOLOGY,"Rajiv Gandhi Proudyogiki Vishwavidyalaya, Bhopal",UNDER GRADUATE,COMPUTER SCIENCE AND ENGINEERING,1st Shift,FULL TIME,90,,
1-7001929580,IASSCOM FORTUNE INSTITUTE OF TECHNOLOGY,GRAM RASULIA GOSAI RATIBAD SIKANDARABAD ROAD BHOPAL,BHOPAL,Private-Self Financing,N,N,1-28713251,IASSCOM FORTUNE INSTITUTE OF TECHNOLOGY,Madhya Pradesh,ENGINEERING AND TECHNOLOGY,"Rajiv Gandhi Proudyogiki Vishwavidyalaya, Bhopal",UNDER GRADUATE,ELECTRONICS & COMMUNICATION ENGG,1st Shift,FULL TIME,45,,
1-7001929580,IASSCOM FORTUNE INSTITUTE OF TECHNOLOGY,GRAM RASULIA GOSAI RATIBAD SIKANDARABAD ROAD BHOPAL,BHOPAL,Private-Self Financing,N,N,1-28713251,IASSCOM FORTUNE INSTITUTE OF TECHNOLOGY,Madhya Pradesh,ENGINEERING AND TECHNOLOGY,"Rajiv Gandhi Proudyogiki Vishwavidyalaya, Bhopal",UNDER GRADUATE,MECHANICAL ENGINEERING,1st Shift,FULL TIME,60,,
1-7001932426,ITM UNIVERSITY - GWALIOR (SCHOOL OF ENGINEERING & TECHNOLOGY),"ITM UNIVERSITY CAMPUS, NH-75, JHANSI ROAD,",GWALIOR,State Private University,N,N,1-779129551,ITM UNIVERSITY - GWALIOR (SCHOOL OF ENGINEERING & TECHNOLOGY),Madhya Pradesh,ENGINEERING AND TECHNOLOGY,"ITM University , Gwalior",POST GRADUATE,COMMUNICATION SYSTEMS,1st Shift,FULL TIME,9,,
1-7001932426,ITM UNIVERSITY - GWALIOR (SCHOOL OF ENGINEERING & TECHNOLOGY),"ITM UNIVERSITY CAMPUS, NH-75, JHANSI ROAD,",GWALIOR,State Private University,N,N,1-779129551,ITM UNIVERSITY - GWALIOR (SCHOOL OF ENGINEERING & TECHNOLOGY),Madhya Pradesh,ENGINEERING AND TECHNOLOGY,"ITM University , Gwalior",POST GRADUATE,COMPUTER SCIENCE & ENGINEERING,1st Shift,FULL TIME,18,,
1-7001932426,ITM UNIVERSITY - GWALIOR (SCHOOL OF ENGINEERING & TECHNOLOGY),"ITM UNIVERSITY CAMPUS, NH-75, JHANSI ROAD,",GWALIOR,State Private University,N,N,1-779129551,ITM UNIVERSITY - GWALIOR (SCHOOL OF ENGINEERING & TECHNOLOGY),Madhya Pradesh,ENGINEERING AND TECHNOLOGY,"ITM University , Gwalior",POST GRADUATE,PRODUCTION AND INDUSTRIAL ENGINEERING,1st Shift,FULL TIME,9,,
1-7001932426,ITM UNIVERSITY - GWALIOR (SCHOOL OF ENGINEERING & TECHNOLOGY),"ITM UNIVERSITY CAMPUS, NH-75, JHANSI ROAD,",GWALIOR,State Private University,N,N,1-779129551,ITM UNIVERSITY - GWALIOR (SCHOOL OF ENGINEERING & TECHNOLOGY),Madhya Pradesh,ENGINEERING AND TECHNOLOGY,"ITM University , Gwalior",POST GRADUATE,VLSI,1st Shift,FULL TIME,9,,
1-7001932426,ITM UNIVERSITY - GWALIOR (SCHOOL OF ENGINEERING & TECHNOLOGY),"ITM UNIVERSITY CAMPUS, NH-75, JHANSI ROAD,",GWALIOR,State Private University,N,N,1-779129551,ITM UNIVERSITY - GWALIOR (SCHOOL OF ENGINEERING & TECHNOLOGY),Madhya Pradesh,ENGINEERING AND TECHNOLOGY,"ITM University , Gwalior",UNDER GRADUATE,CIVIL ENGINEERING,1st Shift,FULL TIME,60,,
1-7001932426,ITM UNIVERSITY - GWALIOR (SCHOOL OF ENGINEERING & TECHNOLOGY),"ITM UNIVERSITY CAMPUS, NH-75, JHANSI ROAD,",GWALIOR,State Private University,N,N,1-779129551,ITM UNIVERSITY - GWALIOR (SCHOOL OF ENGINEERING & TECHNOLOGY),Madhya Pradesh,ENGINEERING AND TECHNOLOGY,"ITM University , Gwalior",UNDER GRADUATE,COMPUTER SCIENCE & ENGINEERING,1st Shift,FULL TIME,120,,
1-7001932426,ITM UNIVERSITY - GWALIOR (SCHOOL OF ENGINEERING & TECHNOLOGY),"ITM UNIVERSITY CAMPUS, NH-75, JHANSI ROAD,",GWALIOR,State Private University,N,N,1-779129551,ITM UNIVERSITY - GWALIOR (SCHOOL OF ENGINEERING & TECHNOLOGY),Madhya Pradesh,ENGINEERING AND TECHNOLOGY,"ITM University , Gwalior",UNDER GRADUATE,ELECTRONICS & COMMUNICATION ENGG,1st Shift,FULL TIME,60,,
1-7001932426,ITM UNIVERSITY - GWALIOR (SCHOOL OF ENGINEERING & TECHNOLOGY),"ITM UNIVERSITY CAMPUS, NH-75, JHANSI ROAD,",GWALIOR,State Private University,N,N,1-779129551,ITM UNIVERSITY - GWALIOR (SCHOOL OF ENGINEERING & TECHNOLOGY),Madhya Pradesh,ENGINEERING AND TECHNOLOGY,"ITM University , Gwalior",UNDER GRADUATE,MECHANICAL ENGINEERING,1st Shift,FULL TIME,60,,
1-7001932426,ITM UNIVERSITY - GWALIOR (SCHOOL OF ENGINEERING & TECHNOLOGY),"ITM UNIVERSITY CAMPUS, NH-75, JHANSI ROAD,",GWALIOR,State Private University,N,N,1-779129551,ITM UNIVERSITY - GWALIOR (SCHOOL OF ENGINEERING & TECHNOLOGY),Madhya Pradesh,MANAGEMENT,"ITM University , Gwalior",POST GRADUATE,MBA,1st Shift,FULL TIME,120,,
1-7001932426,ITM UNIVERSITY - GWALIOR (SCHOOL OF ENGINEERING & TECHNOLOGY),"ITM UNIVERSITY CAMPUS, NH-75, JHANSI ROAD,",GWALIOR,State Private University,N,N,1-779129551,ITM UNIVERSITY - GWALIOR (SCHOOL OF ENGINEERING & TECHNOLOGY),Madhya Pradesh,MCA,"ITM University , Gwalior",POST GRADUATE,MASTERS IN COMPUTER APPLICATIONS,1st Shift,FULL TIME,60,,
1-7001973221,SUSHILA DEVI BANSAL COLLEGE OF ENGINEERING,"UMARIA, NEAR RAU, INDORE",INDORE,Private-Self Financing,N,N,1-10279691,SUSHILA DEVI BANSAL COLLEGE OF ENGINEERING,Madhya Pradesh,ENGINEERING AND TECHNOLOGY,"Rajiv Gandhi Proudyogiki Vishwavidyalaya, Bhopal",POST GRADUATE,COMPUTER SCIENCE AND ENGINEERING,1st Shift,FULL TIME,18,,
1-7001973221,SUSHILA DEVI BANSAL COLLEGE OF ENGINEERING,"UMARIA, NEAR RAU, INDORE",INDORE,Private-Self Financing,N,N,1-10279691,SUSHILA DEVI BANSAL COLLEGE OF ENGINEERING,Madhya Pradesh,ENGINEERING AND TECHNOLOGY,"Rajiv Gandhi Proudyogiki Vishwavidyalaya, Bhopal",POST GRADUATE,STRUCTURAL ENGINEERING,1st Shift,FULL TIME,30,,
1-7001973221,SUSHILA DEVI BANSAL COLLEGE OF ENGINEERING,"UMARIA, NEAR RAU, INDORE",INDORE,Private-Self Financing,N,N,1-10279691,SUSHILA DEVI BANSAL COLLEGE OF ENGINEERING,Madhya Pradesh,ENGINEERING AND TECHNOLOGY,"Rajiv Gandhi Proudyogiki Vishwavidyalaya, Bhopal",UNDER GRADUATE,CIVIL ENGINEERING,1st Shift,FULL TIME,90,,
1-7001973221,SUSHILA DEVI BANSAL COLLEGE OF ENGINEERING,"UMARIA, NEAR RAU, INDORE",INDORE,Private-Self Financing,N,N,1-10279691,SUSHILA DEVI BANSAL COLLEGE OF ENGINEERING,Madhya Pradesh,ENGINEERING AND TECHNOLOGY,"Rajiv Gandhi Proudyogiki Vishwavidyalaya, Bhopal",UNDER GRADUATE,COMPUTER SCIENCE AND ENGINEERING,1st Shift,FULL TIME,120,,
1-7001973221,SUSHILA DEVI BANSAL COLLEGE OF ENGINEERING,"UMARIA, NEAR RAU, INDORE",INDORE,Private-Self Financing,N,N,1-10279691,SUSHILA DEVI BANSAL COLLEGE OF ENGINEERING,Madhya Pradesh,ENGINEERING AND TECHNOLOGY,"Rajiv Gandhi Proudyogiki Vishwavidyalaya, Bhopal",UNDER GRADUATE,MECHANICAL ENGINEERING,1st Shift,FULL TIME,60,,
1-7001973221,SUSHILA DEVI BANSAL COLLEGE OF ENGINEERING,"UMARIA, NEAR RAU, INDORE",INDORE,Private-Self Financing,N,N,1-10279691,SUSHILA DEVI BANSAL COLLEGE OF ENGINEERING,Madhya Pradesh,MANAGEMENT,"Devi Ahilya Vishwavidyalaya, Indore",POST GRADUATE,MBA,1st Shift,FULL TIME,60,,
1-7002141975,ADITYA COLLEGE OF TECHNOLOGY & SCIENCE,"95, MAHDEVA ROAD, SHERGANJ, SATNA (M.P.) 485001",SATNA,Private-Self Financing,N,N,1-12200161,ADITYA COLLEGE OF TECHNOLOGY & SCIENCE,Madhya Pradesh,ENGINEERING AND TECHNOLOGY,"Rajiv Gandhi Proudyogiki Vishwavidyalaya, Bhopal",DIPLOMA,CEMENT TECHNOLOGY,1st Shift,FULL TIME,45,,
1-7002141975,ADITYA COLLEGE OF TECHNOLOGY & SCIENCE,"95, MAHDEVA ROAD, SHERGANJ, SATNA (M.P.) 485001",SATNA,Private-Self Financing,N,N,1-12200161,ADITYA COLLEGE OF TECHNOLOGY & SCIENCE,Madhya Pradesh,ENGINEERING AND TECHNOLOGY,"Rajiv Gandhi Proudyogiki Vishwavidyalaya, Bhopal",DIPLOMA,CIVIL ENGINEERING,1st Shift,FULL TIME,45,,
1-7002141975,ADITYA COLLEGE OF TECHNOLOGY & SCIENCE,"95, MAHDEVA ROAD, SHERGANJ, SATNA (M.P.) 485001",SATNA,Private-Self Financing,N,N,1-12200161,ADITYA COLLEGE OF TECHNOLOGY & SCIENCE,Madhya Pradesh,ENGINEERING AND TECHNOLOGY,"Rajiv Gandhi Proudyogiki Vishwavidyalaya, Bhopal",DIPLOMA,MECHANICAL ENGINEERING,1st Shift,FULL TIME,45,,
1-7002141975,ADITYA COLLEGE OF TECHNOLOGY & SCIENCE,"95, MAHDEVA ROAD, SHERGANJ, SATNA (M.P.) 485001",SATNA,Private-Self Financing,N,N,1-12200161,ADITYA COLLEGE OF TECHNOLOGY & SCIENCE,Madhya Pradesh,ENGINEERING AND TECHNOLOGY,"Rajiv Gandhi Proudyogiki Vishwavidyalaya, Bhopal",DIPLOMA,MINING & MINE SURVEYING,1st Shift,FULL TIME,45,,
1-7002141975,ADITYA COLLEGE OF TECHNOLOGY & SCIENCE,"95, MAHDEVA ROAD, SHERGANJ, SATNA (M.P.) 485001",SATNA,Private-Self Financing,N,N,1-12200161,ADITYA COLLEGE OF TECHNOLOGY & SCIENCE,Madhya Pradesh,ENGINEERING AND TECHNOLOGY,"Rajiv Gandhi Proudyogiki Vishwavidyalaya, Bhopal",POST GRADUATE,COMPUTER SCIENCE AND ENGINEERING,1st Shift,FULL TIME,18,,
1-7002141975,ADITYA COLLEGE OF TECHNOLOGY & SCIENCE,"95, MAHDEVA ROAD, SHERGANJ, SATNA (M.P.) 485001",SATNA,Private-Self Financing,N,N,1-12200161,ADITYA COLLEGE OF TECHNOLOGY & SCIENCE,Madhya Pradesh,ENGINEERING AND TECHNOLOGY,"Rajiv Gandhi Proudyogiki Vishwavidyalaya, Bhopal",POST GRADUATE,ENERGY TECHNOLOGY,1st Shift,FULL TIME,18,,
1-7002141975,ADITYA COLLEGE OF TECHNOLOGY & SCIENCE,"95, MAHDEVA ROAD, SHERGANJ, SATNA (M.P.) 485001",SATNA,Private-Self Financing,N,N,1-12200161,ADITYA COLLEGE OF TECHNOLOGY & SCIENCE,Madhya Pradesh,ENGINEERING AND TECHNOLOGY,"Rajiv Gandhi Proudyogiki Vishwavidyalaya, Bhopal",UNDER GRADUATE,AGRICULTURAL TECHNOLOGY,1st Shift,FULL TIME,45,,
1-7002141975,ADITYA COLLEGE OF TECHNOLOGY & SCIENCE,"95, MAHDEVA ROAD, SHERGANJ, SATNA (M.P.) 485001",SATNA,Private-Self Financing,N,N,1-12200161,ADITYA COLLEGE OF TECHNOLOGY & SCIENCE,Madhya Pradesh,ENGINEERING AND TECHNOLOGY,"Rajiv Gandhi Proudyogiki Vishwavidyalaya, Bhopal",UNDER GRADUATE,CIVIL ENGINEERING,1st Shift,FULL TIME,60,,
1-7002141975,ADITYA COLLEGE OF TECHNOLOGY & SCIENCE,"95, MAHDEVA ROAD, SHERGANJ, SATNA (M.P.) 485001",SATNA,Private-Self Financing,N,N,1-12200161,ADITYA COLLEGE OF TECHNOLOGY & SCIENCE,Madhya Pradesh,ENGINEERING AND TECHNOLOGY,"Rajiv Gandhi Proudyogiki Vishwavidyalaya, Bhopal",UNDER GRADUATE,COMPUTER SCIENCE AND ENGINEERING,1st Shift,FULL TIME,45,,
1-7002141975,ADITYA COLLEGE OF TECHNOLOGY & SCIENCE,"95, MAHDEVA ROAD, SHERGANJ, SATNA (M.P.) 485001",SATNA,Private-Self Financing,N,N,1-12200161,ADITYA COLLEGE OF TECHNOLOGY & SCIENCE,Madhya Pradesh,ENGINEERING AND TECHNOLOGY,"Rajiv Gandhi Proudyogiki Vishwavidyalaya, Bhopal",UNDER GRADUATE,ELECTRICAL AND ELECTRONICS ENGINEERING,1st Shift,FULL TIME,45,,
1-7002141975,ADITYA COLLEGE OF TECHNOLOGY & SCIENCE,"95, MAHDEVA ROAD, SHERGANJ, SATNA (M.P.) 485001",SATNA,Private-Self Financing,N,N,1-12200161,ADITYA COLLEGE OF TECHNOLOGY & SCIENCE,Madhya Pradesh,ENGINEERING AND TECHNOLOGY,"Rajiv Gandhi Proudyogiki Vishwavidyalaya, Bhopal",UNDER GRADUATE,FIRE TECHNOLOGY & SAFETY,1st Shift,FULL TIME,45,,
1-7002141975,ADITYA COLLEGE OF TECHNOLOGY & SCIENCE,"95, MAHDEVA ROAD, SHERGANJ, SATNA (M.P.) 485001",SATNA,Private-Self Financing,N,N,1-12200161,ADITYA COLLEGE OF TECHNOLOGY & SCIENCE,Madhya Pradesh,ENGINEERING AND TECHNOLOGY,"Rajiv Gandhi Proudyogiki Vishwavidyalaya, Bhopal",UNDER GRADUATE,MECHANICAL ENGINEERING,1st Shift,FULL TIME,120,,
1-7002141975,ADITYA COLLEGE OF TECHNOLOGY & SCIENCE,"95, MAHDEVA ROAD, SHERGANJ, SATNA (M.P.) 485001",SATNA,Private-Self Financing,N,N,1-12200161,ADITYA COLLEGE OF TECHNOLOGY & SCIENCE,Madhya Pradesh,ENGINEERING AND TECHNOLOGY,"Rajiv Gandhi Proudyogiki Vishwavidyalaya, Bhopal",UNDER GRADUATE,MINING ENGINEERING,1st Shift,FULL TIME,60,,
1-7002141975,ADITYA COLLEGE OF TECHNOLOGY & SCIENCE,"95, MAHDEVA ROAD, SHERGANJ, SATNA (M.P.) 485001",SATNA,Private-Self Financing,N,N,1-12200161,ADITYA COLLEGE OF TECHNOLOGY & SCIENCE,Madhya Pradesh,MANAGEMENT,"Awadhesh Pratap Singh University, Rewa",POST GRADUATE,MBA,1st Shift,FULL TIME,45,,
1-7002183498,TRUBA INSTITUTE OF ENGINEERING & INFORMATION TECHNOLOGY,"KAROND-GANDHI NAGAR, BY PASS ROAD",BHOPAL,Private-Self Financing,N,N,1-5511241,TRUBA INSTITUTE OF ENGINEERING & INFORMATION TECHNOLOGY,Madhya Pradesh,ENGINEERING AND TECHNOLOGY,"Rajiv Gandhi Proudyogiki Vishwavidyalaya, Bhopal",POST GRADUATE,COMPUTER SCIENCE AND ENGINEERING,1st Shift,FULL TIME,18,,
1-7002183498,TRUBA INSTITUTE OF ENGINEERING & INFORMATION TECHNOLOGY,"KAROND-GANDHI NAGAR, BY PASS ROAD",BHOPAL,Private-Self Financing,N,N,1-5511241,TRUBA INSTITUTE OF ENGINEERING & INFORMATION TECHNOLOGY,Madhya Pradesh,ENGINEERING AND TECHNOLOGY,"Rajiv Gandhi Proudyogiki Vishwavidyalaya, Bhopal",POST GRADUATE,DIGITAL COMMUNICATIONS,1st Shift,FULL TIME,18,,
1-7002183498,TRUBA INSTITUTE OF ENGINEERING & INFORMATION TECHNOLOGY,"KAROND-GANDHI NAGAR, BY PASS ROAD",BHOPAL,Private-Self Financing,N,N,1-5511241,TRUBA INSTITUTE OF ENGINEERING & INFORMATION TECHNOLOGY,Madhya Pradesh,ENGINEERING AND TECHNOLOGY,"Rajiv Gandhi Proudyogiki Vishwavidyalaya, Bhopal",POST GRADUATE,ENERGY TECHNOLOGY,1st Shift,FULL TIME,24,,
1-7002183498,TRUBA INSTITUTE OF ENGINEERING & INFORMATION TECHNOLOGY,"KAROND-GANDHI NAGAR, BY PASS ROAD",BHOPAL,Private-Self Financing,N,N,1-5511241,TRUBA INSTITUTE OF ENGINEERING & INFORMATION TECHNOLOGY,Madhya Pradesh,ENGINEERING AND TECHNOLOGY,"Rajiv Gandhi Proudyogiki Vishwavidyalaya, Bhopal",POST GRADUATE,STRUCTURAL ENGINEERING,1st Shift,FULL TIME,18,,
1-7002183498,TRUBA INSTITUTE OF ENGINEERING & INFORMATION TECHNOLOGY,"KAROND-GANDHI NAGAR, BY PASS ROAD",BHOPAL,Private-Self Financing,N,N,1-5511241,TRUBA INSTITUTE OF ENGINEERING & INFORMATION TECHNOLOGY,Madhya Pradesh,ENGINEERING AND TECHNOLOGY,"Rajiv Gandhi Proudyogiki Vishwavidyalaya, Bhopal",POST GRADUATE,THERMAL ENGINEERING,1st Shift,FULL TIME,18,,
1-7002183498,TRUBA INSTITUTE OF ENGINEERING & INFORMATION TECHNOLOGY,"KAROND-GANDHI NAGAR, BY PASS ROAD",BHOPAL,Private-Self Financing,N,N,1-5511241,TRUBA INSTITUTE OF ENGINEERING & INFORMATION TECHNOLOGY,Madhya Pradesh,ENGINEERING AND TECHNOLOGY,"Rajiv Gandhi Proudyogiki Vishwavidyalaya, Bhopal",UNDER GRADUATE,CIVIL ENGINEERING,1st Shift,FULL TIME,90,,
1-7002183498,TRUBA INSTITUTE OF ENGINEERING & INFORMATION TECHNOLOGY,"KAROND-GANDHI NAGAR, BY PASS ROAD",BHOPAL,Private-Self Financing,N,N,1-5511241,TRUBA INSTITUTE OF ENGINEERING & INFORMATION TECHNOLOGY,Madhya Pradesh,ENGINEERING AND TECHNOLOGY,"Rajiv Gandhi Proudyogiki Vishwavidyalaya, Bhopal",UNDER GRADUATE,COMPUTER SCIENCE AND ENGINEERING,1st Shift,FULL TIME,180,,
1-7002183498,TRUBA INSTITUTE OF ENGINEERING & INFORMATION TECHNOLOGY,"KAROND-GANDHI NAGAR, BY PASS ROAD",BHOPAL,Private-Self Financing,N,N,1-5511241,TRUBA INSTITUTE OF ENGINEERING & INFORMATION TECHNOLOGY,Madhya Pradesh,ENGINEERING AND TECHNOLOGY,"Rajiv Gandhi Proudyogiki Vishwavidyalaya, Bhopal",UNDER GRADUATE,ELECTRICAL AND ELECTRONICS ENGINEERING,1st Shift,FULL TIME,60,,
1-7002183498,TRUBA INSTITUTE OF ENGINEERING & INFORMATION TECHNOLOGY,"KAROND-GANDHI NAGAR, BY PASS ROAD",BHOPAL,Private-Self Financing,N,N,1-5511241,TRUBA INSTITUTE OF ENGINEERING & INFORMATION TECHNOLOGY,Madhya Pradesh,ENGINEERING AND TECHNOLOGY,"Rajiv Gandhi Proudyogiki Vishwavidyalaya, Bhopal",UNDER GRADUATE,ELECTRONICS & COMMUNICATION ENGG,1st Shift,FULL TIME,60,,
1-7002183498,TRUBA INSTITUTE OF ENGINEERING & INFORMATION TECHNOLOGY,"KAROND-GANDHI NAGAR, BY PASS ROAD",BHOPAL,Private-Self Financing,N,N,1-5511241,TRUBA INSTITUTE OF ENGINEERING & INFORMATION TECHNOLOGY,Madhya Pradesh,ENGINEERING AND TECHNOLOGY,"Rajiv Gandhi Proudyogiki Vishwavidyalaya, Bhopal",UNDER GRADUATE,MECHANICAL ENGINEERING,1st Shift,FULL TIME,120,,
1-7002201255,COLLEGE OF ENGINEERING,"INDORE BYPASS ROAD ARANDIYA, POST JHALARIYA",INDORE,Private-Self Financing,N,N,1-6229334,COLLEGE OF ENGINEERING,Madhya Pradesh,ENGINEERING AND TECHNOLOGY,"Dr. A.P.J. Abdul Kalam University, Indore, Madhya Pradesh",POST GRADUATE,COMPUTER SCIENCE AND ENGINEERING,1st Shift,FULL TIME,24,,
1-7002201255,COLLEGE OF ENGINEERING,"INDORE BYPASS ROAD ARANDIYA, POST JHALARIYA",INDORE,Private-Self Financing,N,N,1-6229334,COLLEGE OF ENGINEERING,Madhya Pradesh,ENGINEERING AND TECHNOLOGY,"Dr. A.P.J. Abdul Kalam University, Indore, Madhya Pradesh",POST GRADUATE,DIGITAL COMMUNICATIONS,1st Shift,FULL TIME,24,,
1-7002201255,COLLEGE OF ENGINEERING,"INDORE BYPASS ROAD ARANDIYA, POST JHALARIYA",INDORE,Private-Self Financing,N,N,1-6229334,COLLEGE OF ENGINEERING,Madhya Pradesh,ENGINEERING AND TECHNOLOGY,"Dr. A.P.J. Abdul Kalam University, Indore, Madhya Pradesh",POST GRADUATE,POWER SYSTEMS,1st Shift,FULL TIME,18,,
1-7002201255,COLLEGE OF ENGINEERING,"INDORE BYPASS ROAD ARANDIYA, POST JHALARIYA",INDORE,Private-Self Financing,N,N,1-6229334,COLLEGE OF ENGINEERING,Madhya Pradesh,ENGINEERING AND TECHNOLOGY,"Dr. A.P.J. Abdul Kalam University, Indore, Madhya Pradesh",POST GRADUATE,THERMAL ENGINEERING,1st Shift,FULL TIME,18,,
1-7002201255,COLLEGE OF ENGINEERING,"INDORE BYPASS ROAD ARANDIYA, POST JHALARIYA",INDORE,Private-Self Financing,N,N,1-6229334,COLLEGE OF ENGINEERING,Madhya Pradesh,ENGINEERING AND TECHNOLOGY,"Dr. A.P.J. Abdul Kalam University, Indore, Madhya Pradesh",UNDER GRADUATE,CIVIL ENGINEERING,1st Shift,FULL TIME,60,,
1-7002201255,COLLEGE OF ENGINEERING,"INDORE BYPASS ROAD ARANDIYA, POST JHALARIYA",INDORE,Private-Self Financing,N,N,1-6229334,COLLEGE OF ENGINEERING,Madhya Pradesh,ENGINEERING AND TECHNOLOGY,"Dr. A.P.J. Abdul Kalam University, Indore, Madhya Pradesh",UNDER GRADUATE,COMPUTER SCIENCE AND ENGINEERING,1st Shift,FULL TIME,120,,
1-7002201255,COLLEGE OF ENGINEERING,"INDORE BYPASS ROAD ARANDIYA, POST JHALARIYA",INDORE,Private-Self Financing,N,N,1-6229334,COLLEGE OF ENGINEERING,Madhya Pradesh,ENGINEERING AND TECHNOLOGY,"Dr. A.P.J. Abdul Kalam University, Indore, Madhya Pradesh",UNDER GRADUATE,ELECTRICAL AND ELECTRONICS ENGINEERING,1st Shift,FULL TIME,120,,
1-7002201255,COLLEGE OF ENGINEERING,"INDORE BYPASS ROAD ARANDIYA, POST JHALARIYA",INDORE,Private-Self Financing,N,N,1-6229334,COLLEGE OF ENGINEERING,Madhya Pradesh,ENGINEERING AND TECHNOLOGY,"Dr. A.P.J. Abdul Kalam University, Indore, Madhya Pradesh",UNDER GRADUATE,ELECTRONICS & COMMUNICATION ENGG,1st Shift,FULL TIME,120,,
1-7002201255,COLLEGE OF ENGINEERING,"INDORE BYPASS ROAD ARANDIYA, POST JHALARIYA",INDORE,Private-Self Financing,N,N,1-6229334,COLLEGE OF ENGINEERING,Madhya Pradesh,ENGINEERING AND TECHNOLOGY,"Dr. A.P.J. Abdul Kalam University, Indore, Madhya Pradesh",UNDER GRADUATE,INFORMATION TECHNOLOGY,1st Shift,FULL TIME,60,,
1-7002201255,COLLEGE OF ENGINEERING,"INDORE BYPASS ROAD ARANDIYA, POST JHALARIYA",INDORE,Private-Self Financing,N,N,1-6229334,COLLEGE OF ENGINEERING,Madhya Pradesh,ENGINEERING AND TECHNOLOGY,"Dr. A.P.J. Abdul Kalam University, Indore, Madhya Pradesh",UNDER GRADUATE,MECHANICAL ENGINEERING,1st Shift,FULL TIME,180,,
1-7002201255,COLLEGE OF ENGINEERING,"INDORE BYPASS ROAD ARANDIYA, POST JHALARIYA",INDORE,Private-Self Financing,N,N,1-6229334,COLLEGE OF ENGINEERING,Madhya Pradesh,MANAGEMENT,"Dr. A.P.J. Abdul Kalam University, Indore, Madhya Pradesh",POST GRADUATE,MBA,1st Shift,FULL TIME,120,,
1-7002201255,COLLEGE OF ENGINEERING,"INDORE BYPASS ROAD ARANDIYA, POST JHALARIYA",INDORE,Private-Self Financing,N,N,1-6229334,COLLEGE OF ENGINEERING,Madhya Pradesh,MCA,"Dr. A.P.J. Abdul Kalam University, Indore, Madhya Pradesh",POST GRADUATE,MASTERS IN COMPUTER APPLICATIONS,1st Shift,FULL TIME,60,,
1-7002220946,"ADINA INSTITUTE OF SCIENCE AND TECHNOLOGY, SAGAR, MP","OPPOSITE BAMHORI SEED FARM
BHOPAL ROAD
SAGAR M.P.",SAGAR,Private-Self Financing,N,N,1-6706611,"ADINA INSTITUTE OF SCIENCE AND TECHNOLOGY, SAGAR, MP",Madhya Pradesh,ENGINEERING AND TECHNOLOGY,"Rajiv Gandhi Proudyogiki Vishwavidyalaya, Bhopal",POST GRADUATE,COMPUTER SCIENCE,1st Shift,FULL TIME,18,,
1-7002220946,"ADINA INSTITUTE OF SCIENCE AND TECHNOLOGY, SAGAR, MP","OPPOSITE BAMHORI SEED FARM
BHOPAL ROAD
SAGAR M.P.",SAGAR,Private-Self Financing,N,N,1-6706611,"ADINA INSTITUTE OF SCIENCE AND TECHNOLOGY, SAGAR, MP",Madhya Pradesh,ENGINEERING AND TECHNOLOGY,"Rajiv Gandhi Proudyogiki Vishwavidyalaya, Bhopal",POST GRADUATE,THERMAL POWER ENGINEERING,1st Shift,FULL TIME,18,,
1-7002220946,"ADINA INSTITUTE OF SCIENCE AND TECHNOLOGY, SAGAR, MP","OPPOSITE BAMHORI SEED FARM
BHOPAL ROAD
SAGAR M.P.",SAGAR,Private-Self Financing,N,N,1-6706611,"ADINA INSTITUTE OF SCIENCE AND TECHNOLOGY, SAGAR, MP",Madhya Pradesh,ENGINEERING AND TECHNOLOGY,"Rajiv Gandhi Proudyogiki Vishwavidyalaya, Bhopal",POST GRADUATE,VLSI,1st Shift,FULL TIME,18,,
1-7002220946,"ADINA INSTITUTE OF SCIENCE AND TECHNOLOGY, SAGAR, MP","OPPOSITE BAMHORI SEED FARM
BHOPAL ROAD
SAGAR M.P.",SAGAR,Private-Self Financing,N,N,1-6706611,"ADINA INSTITUTE OF SCIENCE AND TECHNOLOGY, SAGAR, MP",Madhya Pradesh,ENGINEERING AND TECHNOLOGY,"Rajiv Gandhi Proudyogiki Vishwavidyalaya, Bhopal",UNDER GRADUATE,CIVIL ENGINEERING,1st Shift,FULL TIME,60,,
1-7002220946,"ADINA INSTITUTE OF SCIENCE AND TECHNOLOGY, SAGAR, MP","OPPOSITE BAMHORI SEED FARM
BHOPAL ROAD
SAGAR M.P.",SAGAR,Private-Self Financing,N,N,1-6706611,"ADINA INSTITUTE OF SCIENCE AND TECHNOLOGY, SAGAR, MP",Madhya Pradesh,ENGINEERING AND TECHNOLOGY,"Rajiv Gandhi Proudyogiki Vishwavidyalaya, Bhopal",UNDER GRADUATE,COMPUTER SCIENCE,1st Shift,FULL TIME,60,,
1-7002220946,"ADINA INSTITUTE OF SCIENCE AND TECHNOLOGY, SAGAR, MP","OPPOSITE BAMHORI SEED FARM
BHOPAL ROAD
SAGAR M.P.",SAGAR,Private-Self Financing,N,N,1-6706611,"ADINA INSTITUTE OF SCIENCE AND TECHNOLOGY, SAGAR, MP",Madhya Pradesh,ENGINEERING AND TECHNOLOGY,"Rajiv Gandhi Proudyogiki Vishwavidyalaya, Bhopal",UNDER GRADUATE,ELECTRICAL AND ELECTRONICS ENGINEERING,1st Shift,FULL TIME,60,,
1-7002220946,"ADINA INSTITUTE OF SCIENCE AND TECHNOLOGY, SAGAR, MP","OPPOSITE BAMHORI SEED FARM
BHOPAL ROAD
SAGAR M.P.",SAGAR,Private-Self Financing,N,N,1-6706611,"ADINA INSTITUTE OF SCIENCE AND TECHNOLOGY, SAGAR, MP",Madhya Pradesh,ENGINEERING AND TECHNOLOGY,"Rajiv Gandhi Proudyogiki Vishwavidyalaya, Bhopal",UNDER GRADUATE,MECHANICAL ENGINEERING,1st Shift,FULL TIME,60,,
1-7002221518,"SAM COLLEGE OF ENGINEERING AND TECHNOLOGY, BHOPAL","GRAM ADAMPUR CHAWANI, POST - KOLUA,
RAISEN ROAD, BHOPAL 
M.P. 
PIN 462021",BHOPAL,Private-Self Financing,N,Y,1-21909393,"SAM COLLEGE OF ENGINEERING AND TECHNOLOGY, BHOPAL",Madhya Pradesh,ENGINEERING AND TECHNOLOGY,"Rajiv Gandhi Proudyogiki Vishwavidyalaya, Bhopal",DIPLOMA,CIVIL ENGINEERING,1st Shift,FULL TIME,60,,
1-7002221518,"SAM COLLEGE OF ENGINEERING AND TECHNOLOGY, BHOPAL","GRAM ADAMPUR CHAWANI, POST - KOLUA,
RAISEN ROAD, BHOPAL 
M.P. 
PIN 462021",BHOPAL,Private-Self Financing,N,Y,1-21909393,"SAM COLLEGE OF ENGINEERING AND TECHNOLOGY, BHOPAL",Madhya Pradesh,ENGINEERING AND TECHNOLOGY,"Rajiv Gandhi Proudyogiki Vishwavidyalaya, Bhopal",DIPLOMA,ELECTRICAL AND ELECTRONICS ENGINEERING,1st Shift,FULL TIME,60,,
1-7002221518,"SAM COLLEGE OF ENGINEERING AND TECHNOLOGY, BHOPAL","GRAM ADAMPUR CHAWANI, POST - KOLUA,
RAISEN ROAD, BHOPAL 
M.P. 
PIN 462021",BHOPAL,Private-Self Financing,N,Y,1-21909393,"SAM COLLEGE OF ENGINEERING AND TECHNOLOGY, BHOPAL",Madhya Pradesh,ENGINEERING AND TECHNOLOGY,"Rajiv Gandhi Proudyogiki Vishwavidyalaya, Bhopal",DIPLOMA,MECHANICAL ENGINEERING,1st Shift,FULL TIME,60,,
1-7002221518,"SAM COLLEGE OF ENGINEERING AND TECHNOLOGY, BHOPAL","GRAM ADAMPUR CHAWANI, POST - KOLUA,
RAISEN ROAD, BHOPAL 
M.P. 
PIN 462021",BHOPAL,Private-Self Financing,N,Y,1-21909393,"SAM COLLEGE OF ENGINEERING AND TECHNOLOGY, BHOPAL",Madhya Pradesh,ENGINEERING AND TECHNOLOGY,"Rajiv Gandhi Proudyogiki Vishwavidyalaya, Bhopal",POST GRADUATE,ADVANCED PRODUCTION SYSTEMS,1st Shift,FULL TIME,18,,
1-7002221518,"SAM COLLEGE OF ENGINEERING AND TECHNOLOGY, BHOPAL","GRAM ADAMPUR CHAWANI, POST - KOLUA,
RAISEN ROAD, BHOPAL 
M.P. 
PIN 462021",BHOPAL,Private-Self Financing,N,Y,1-21909393,"SAM COLLEGE OF ENGINEERING AND TECHNOLOGY, BHOPAL",Madhya Pradesh,ENGINEERING AND TECHNOLOGY,"Rajiv Gandhi Proudyogiki Vishwavidyalaya, Bhopal",POST GRADUATE,COMPUTER SCIENCE AND ENGINEERING,1st Shift,FULL TIME,18,,
1-7002221518,"SAM COLLEGE OF ENGINEERING AND TECHNOLOGY, BHOPAL","GRAM ADAMPUR CHAWANI, POST - KOLUA,
RAISEN ROAD, BHOPAL 
M.P. 
PIN 462021",BHOPAL,Private-Self Financing,N,Y,1-21909393,"SAM COLLEGE OF ENGINEERING AND TECHNOLOGY, BHOPAL",Madhya Pradesh,ENGINEERING AND TECHNOLOGY,"Rajiv Gandhi Proudyogiki Vishwavidyalaya, Bhopal",POST GRADUATE,MICRO ELECTRONICS & VLSI DESIGN,1st Shift,FULL TIME,18,,
1-7002221518,"SAM COLLEGE OF ENGINEERING AND TECHNOLOGY, BHOPAL","GRAM ADAMPUR CHAWANI, POST - KOLUA,
RAISEN ROAD, BHOPAL 
M.P. 
PIN 462021",BHOPAL,Private-Self Financing,N,Y,1-21909393,"SAM COLLEGE OF ENGINEERING AND TECHNOLOGY, BHOPAL",Madhya Pradesh,ENGINEERING AND TECHNOLOGY,"Rajiv Gandhi Proudyogiki Vishwavidyalaya, Bhopal",POST GRADUATE,STRUCTURAL ENGINEERING,1st Shift,FULL TIME,18,,
1-7002221518,"SAM COLLEGE OF ENGINEERING AND TECHNOLOGY, BHOPAL","GRAM ADAMPUR CHAWANI, POST - KOLUA,
RAISEN ROAD, BHOPAL 
M.P. 
PIN 462021",BHOPAL,Private-Self Financing,N,Y,1-21909393,"SAM COLLEGE OF ENGINEERING AND TECHNOLOGY, BHOPAL",Madhya Pradesh,ENGINEERING AND TECHNOLOGY,"Rajiv Gandhi Proudyogiki Vishwavidyalaya, Bhopal",UNDER GRADUATE,CIVIL ENGINEERING,1st Shift,FULL TIME,60,,
1-7002221518,"SAM COLLEGE OF ENGINEERING AND TECHNOLOGY, BHOPAL","GRAM ADAMPUR CHAWANI, POST - KOLUA,
RAISEN ROAD, BHOPAL 
M.P. 
PIN 462021",BHOPAL,Private-Self Financing,N,Y,1-21909393,"SAM COLLEGE OF ENGINEERING AND TECHNOLOGY, BHOPAL",Madhya Pradesh,ENGINEERING AND TECHNOLOGY,"Rajiv Gandhi Proudyogiki Vishwavidyalaya, Bhopal",UNDER GRADUATE,COMPUTER SCIENCE AND ENGINEERING,1st Shift,FULL TIME,120,,
1-7002221518,"SAM COLLEGE OF ENGINEERING AND TECHNOLOGY, BHOPAL","GRAM ADAMPUR CHAWANI, POST - KOLUA,
RAISEN ROAD, BHOPAL 
M.P. 
PIN 462021",BHOPAL,Private-Self Financing,N,Y,1-21909393,"SAM COLLEGE OF ENGINEERING AND TECHNOLOGY, BHOPAL",Madhya Pradesh,ENGINEERING AND TECHNOLOGY,"Rajiv Gandhi Proudyogiki Vishwavidyalaya, Bhopal",UNDER GRADUATE,ELECTRICAL AND ELECTRONICS ENGINEERING,1st Shift,FULL TIME,60,,
1-7002221518,"SAM COLLEGE OF ENGINEERING AND TECHNOLOGY, BHOPAL","GRAM ADAMPUR CHAWANI, POST - KOLUA,
RAISEN ROAD, BHOPAL 
M.P. 
PIN 462021",BHOPAL,Private-Self Financing,N,Y,1-21909393,"SAM COLLEGE OF ENGINEERING AND TECHNOLOGY, BHOPAL",Madhya Pradesh,ENGINEERING AND TECHNOLOGY,"Rajiv Gandhi Proudyogiki Vishwavidyalaya, Bhopal",UNDER GRADUATE,ELECTRONICS & COMMUNICATION ENGG,1st Shift,FULL TIME,30,,
1-7002221518,"SAM COLLEGE OF ENGINEERING AND TECHNOLOGY, BHOPAL","GRAM ADAMPUR CHAWANI, POST - KOLUA,
RAISEN ROAD, BHOPAL 
M.P. 
PIN 462021",BHOPAL,Private-Self Financing,N,Y,1-21909393,"SAM COLLEGE OF ENGINEERING AND TECHNOLOGY, BHOPAL",Madhya Pradesh,ENGINEERING AND TECHNOLOGY,"Rajiv Gandhi Proudyogiki Vishwavidyalaya, Bhopal",UNDER GRADUATE,MECHANICAL ENGINEERING,1st Shift,FULL TIME,60,,
1-7002221518,"SAM COLLEGE OF ENGINEERING AND TECHNOLOGY, BHOPAL","GRAM ADAMPUR CHAWANI, POST - KOLUA,
RAISEN ROAD, BHOPAL 
M.P. 
PIN 462021",BHOPAL,Private-Self Financing,N,Y,1-21909393,"SAM COLLEGE OF ENGINEERING AND TECHNOLOGY, BHOPAL",Madhya Pradesh,MANAGEMENT,"Barkatullah University, Bhopal",POST GRADUATE,MBA,1st Shift,FULL TIME,60,,
1-7002221518,"SAM COLLEGE OF ENGINEERING AND TECHNOLOGY, BHOPAL","GRAM ADAMPUR CHAWANI, POST - KOLUA,
RAISEN ROAD, BHOPAL 
M.P. 
PIN 462021",BHOPAL,Private-Self Financing,N,Y,1-21909393,"SAM COLLEGE OF ENGINEERING AND TECHNOLOGY, BHOPAL",Madhya Pradesh,MCA,"Rajiv Gandhi Proudyogiki Vishwavidyalaya, Bhopal",POST GRADUATE,MASTERS IN COMPUTER APPLICATIONS,1st Shift,FULL TIME,60,,
1-7002224020,S.G.B.M. INSTITUTE OF TECHNOLOGY & SCIENCE,"VILLAGE BINEKI,
PATAN ROAD,
TEHSIL PATAN,
JABALPUR.
MADHYA PRADESH",JABALPUR,Private-Self Financing,N,N,1-3106791,S.G.B.M. INSTITUTE OF TECHNOLOGY & SCIENCE,Madhya Pradesh,ENGINEERING AND TECHNOLOGY,"Rajiv Gandhi Proudyogiki Vishwavidyalaya, Bhopal",UNDER GRADUATE,CIVIL ENGINEERING,1st Shift,FULL TIME,60,,
1-7002224020,S.G.B.M. INSTITUTE OF TECHNOLOGY & SCIENCE,"VILLAGE BINEKI,
PATAN ROAD,
TEHSIL PATAN,
JABALPUR.
MADHYA PRADESH",JABALPUR,Private-Self Financing,N,N,1-3106791,S.G.B.M. INSTITUTE OF TECHNOLOGY & SCIENCE,Madhya Pradesh,ENGINEERING AND TECHNOLOGY,"Rajiv Gandhi Proudyogiki Vishwavidyalaya, Bhopal",UNDER GRADUATE,COMPUTER SCIENCE AND ENGINEERING,1st Shift,FULL TIME,60,,
1-7002224020,S.G.B.M. INSTITUTE OF TECHNOLOGY & SCIENCE,"VILLAGE BINEKI,
PATAN ROAD,
TEHSIL PATAN,
JABALPUR.
MADHYA PRADESH",JABALPUR,Private-Self Financing,N,N,1-3106791,S.G.B.M. INSTITUTE OF TECHNOLOGY & SCIENCE,Madhya Pradesh,ENGINEERING AND TECHNOLOGY,"Rajiv Gandhi Proudyogiki Vishwavidyalaya, Bhopal",UNDER GRADUATE,ELECTRONICS & COMMUNICATION ENGG,1st Shift,FULL TIME,60,,
1-7002224020,S.G.B.M. INSTITUTE OF TECHNOLOGY & SCIENCE,"VILLAGE BINEKI,
PATAN ROAD,
TEHSIL PATAN,
JABALPUR.
MADHYA PRADESH",JABALPUR,Private-Self Financing,N,N,1-3106791,S.G.B.M. INSTITUTE OF TECHNOLOGY & SCIENCE,Madhya Pradesh,ENGINEERING AND TECHNOLOGY,"Rajiv Gandhi Proudyogiki Vishwavidyalaya, Bhopal",UNDER GRADUATE,MECHANICAL ENGINEERING,1st Shift,FULL TIME,60,,
1-7002224020,S.G.B.M. INSTITUTE OF TECHNOLOGY & SCIENCE,"VILLAGE BINEKI,
PATAN ROAD,
TEHSIL PATAN,
JABALPUR.
MADHYA PRADESH",JABALPUR,Private-Self Financing,N,N,1-3106791,S.G.B.M. INSTITUTE OF TECHNOLOGY & SCIENCE,Madhya Pradesh,MANAGEMENT,"Rani Durgavati Vishwavidyalaya, Jabalpur",POST GRADUATE,MBA,1st Shift,FULL TIME,60,,
1-7002263339,SAGAR INSTITUTE OF SCIENCE TECHNOLOGY & ENGINEERING (SISTEC-E),"SIKANDRABAD, NEAR RATIBAD
BHADBHADA ROAD
BHOPAL",BHOPAL,Private-Self Financing,N,N,1-2739834,SAGAR INSTITUTE OF SCIENCE TECHNOLOGY & ENGINEERING (SISTEC-E),Madhya Pradesh,ENGINEERING AND TECHNOLOGY,"Rajiv Gandhi Proudyogiki Vishwavidyalaya, Bhopal",POST GRADUATE,POWER SYSTEMS,1st Shift,FULL TIME,18,,
1-7002263339,SAGAR INSTITUTE OF SCIENCE TECHNOLOGY & ENGINEERING (SISTEC-E),"SIKANDRABAD, NEAR RATIBAD
BHADBHADA ROAD
BHOPAL",BHOPAL,Private-Self Financing,N,N,1-2739834,SAGAR INSTITUTE OF SCIENCE TECHNOLOGY & ENGINEERING (SISTEC-E),Madhya Pradesh,ENGINEERING AND TECHNOLOGY,"Rajiv Gandhi Proudyogiki Vishwavidyalaya, Bhopal",UNDER GRADUATE,COMPUTER SCIENCE AND ENGINEERING,1st Shift,FULL TIME,60,,
1-7002263339,SAGAR INSTITUTE OF SCIENCE TECHNOLOGY & ENGINEERING (SISTEC-E),"SIKANDRABAD, NEAR RATIBAD
BHADBHADA ROAD
BHOPAL",BHOPAL,Private-Self Financing,N,N,1-2739834,SAGAR INSTITUTE OF SCIENCE TECHNOLOGY & ENGINEERING (SISTEC-E),Madhya Pradesh,ENGINEERING AND TECHNOLOGY,"Rajiv Gandhi Proudyogiki Vishwavidyalaya, Bhopal",UNDER GRADUATE,ELECTRICAL ENGINEERING,1st Shift,FULL TIME,90,,
1-7002263339,SAGAR INSTITUTE OF SCIENCE TECHNOLOGY & ENGINEERING (SISTEC-E),"SIKANDRABAD, NEAR RATIBAD
BHADBHADA ROAD
BHOPAL",BHOPAL,Private-Self Financing,N,N,1-2739834,SAGAR INSTITUTE OF SCIENCE TECHNOLOGY & ENGINEERING (SISTEC-E),Madhya Pradesh,ENGINEERING AND TECHNOLOGY,"Rajiv Gandhi Proudyogiki Vishwavidyalaya, Bhopal",UNDER GRADUATE,ELECTRONICS & COMMUNICATION ENGG,1st Shift,FULL TIME,60,,
1-7002263339,SAGAR INSTITUTE OF SCIENCE TECHNOLOGY & ENGINEERING (SISTEC-E),"SIKANDRABAD, NEAR RATIBAD
BHADBHADA ROAD
BHOPAL",BHOPAL,Private-Self Financing,N,N,1-2739834,SAGAR INSTITUTE OF SCIENCE TECHNOLOGY & ENGINEERING (SISTEC-E),Madhya Pradesh,ENGINEERING AND TECHNOLOGY,"Rajiv Gandhi Proudyogiki Vishwavidyalaya, Bhopal",UNDER GRADUATE,MECHANICAL ENGINEERING,1st Shift,FULL TIME,90,,
1-7002310245,TRUBA COLLEGE OF SCIENCE & TECHNOLOGY,"KAROND-GANDHINAGAR, BY PASS ROAD.",BHOPAL,Private-Self Financing,N,N,1-5512441,TRUBA COLLEGE OF SCIENCE & TECHNOLOGY,Madhya Pradesh,ENGINEERING AND TECHNOLOGY,"Rajiv Gandhi Proudyogiki Vishwavidyalaya, Bhopal",POST GRADUATE,POWER ELECTRONICS,1st Shift,FULL TIME,18,,
1-7002310245,TRUBA COLLEGE OF SCIENCE & TECHNOLOGY,"KAROND-GANDHINAGAR, BY PASS ROAD.",BHOPAL,Private-Self Financing,N,N,1-5512441,TRUBA COLLEGE OF SCIENCE & TECHNOLOGY,Madhya Pradesh,ENGINEERING AND TECHNOLOGY,"Rajiv Gandhi Proudyogiki Vishwavidyalaya, Bhopal",POST GRADUATE,VLSI AND EMBEDDED SYSTEMS DESIGN,1st Shift,FULL TIME,18,,
1-7002310245,TRUBA COLLEGE OF SCIENCE & TECHNOLOGY,"KAROND-GANDHINAGAR, BY PASS ROAD.",BHOPAL,Private-Self Financing,N,N,1-5512441,TRUBA COLLEGE OF SCIENCE & TECHNOLOGY,Madhya Pradesh,ENGINEERING AND TECHNOLOGY,"Rajiv Gandhi Proudyogiki Vishwavidyalaya, Bhopal",UNDER GRADUATE,COMPUTER SCIENCE AND ENGINEERING,1st Shift,FULL TIME,120,,
1-7002310245,TRUBA COLLEGE OF SCIENCE & TECHNOLOGY,"KAROND-GANDHINAGAR, BY PASS ROAD.",BHOPAL,Private-Self Financing,N,N,1-5512441,TRUBA COLLEGE OF SCIENCE & TECHNOLOGY,Madhya Pradesh,ENGINEERING AND TECHNOLOGY,"Rajiv Gandhi Proudyogiki Vishwavidyalaya, Bhopal",UNDER GRADUATE,MECHANICAL ENGINEERING,1st Shift,FULL TIME,60,,
1-7002313446,MALWA INSTITUTE OF TECHNOLOGY,NIPANIA BYPASS ROAD,INDORE,Private-Self Financing,N,N,1-10811151,MALWA INSTITUTE OF TECHNOLOGY,Madhya Pradesh,ENGINEERING AND TECHNOLOGY,"Rajiv Gandhi Proudyogiki Vishwavidyalaya, Bhopal",DIPLOMA,CIVIL ENGINEERING,1st Shift,FULL TIME,60,,
1-7002313446,MALWA INSTITUTE OF TECHNOLOGY,NIPANIA BYPASS ROAD,INDORE,Private-Self Financing,N,N,1-10811151,MALWA INSTITUTE OF TECHNOLOGY,Madhya Pradesh,ENGINEERING AND TECHNOLOGY,"Rajiv Gandhi Proudyogiki Vishwavidyalaya, Bhopal",DIPLOMA,MECHANICAL ENGINEERING,1st Shift,FULL TIME,60,,
1-7002313446,MALWA INSTITUTE OF TECHNOLOGY,NIPANIA BYPASS ROAD,INDORE,Private-Self Financing,N,N,1-10811151,MALWA INSTITUTE OF TECHNOLOGY,Madhya Pradesh,ENGINEERING AND TECHNOLOGY,"Rajiv Gandhi Proudyogiki Vishwavidyalaya, Bhopal",POST GRADUATE,CAD/CAM ENGINEERING,1st Shift,FULL TIME,18,,
1-7002313446,MALWA INSTITUTE OF TECHNOLOGY,NIPANIA BYPASS ROAD,INDORE,Private-Self Financing,N,N,1-10811151,MALWA INSTITUTE OF TECHNOLOGY,Madhya Pradesh,ENGINEERING AND TECHNOLOGY,"Rajiv Gandhi Proudyogiki Vishwavidyalaya, Bhopal",POST GRADUATE,COMPUTER SCIENCE AND ENGINEERING,1st Shift,FULL TIME,18,,
1-7002313446,MALWA INSTITUTE OF TECHNOLOGY,NIPANIA BYPASS ROAD,INDORE,Private-Self Financing,N,N,1-10811151,MALWA INSTITUTE OF TECHNOLOGY,Madhya Pradesh,ENGINEERING AND TECHNOLOGY,"Rajiv Gandhi Proudyogiki Vishwavidyalaya, Bhopal",POST GRADUATE,POWER ELECTRONICS,1st Shift,FULL TIME,18,,
1-7002313446,MALWA INSTITUTE OF TECHNOLOGY,NIPANIA BYPASS ROAD,INDORE,Private-Self Financing,N,N,1-10811151,MALWA INSTITUTE OF TECHNOLOGY,Madhya Pradesh,ENGINEERING AND TECHNOLOGY,"Rajiv Gandhi Proudyogiki Vishwavidyalaya, Bhopal",UNDER GRADUATE,AUTOMOBILE ENGINEERING,1st Shift,FULL TIME,30,,
1-7002313446,MALWA INSTITUTE OF TECHNOLOGY,NIPANIA BYPASS ROAD,INDORE,Private-Self Financing,N,N,1-10811151,MALWA INSTITUTE OF TECHNOLOGY,Madhya Pradesh,ENGINEERING AND TECHNOLOGY,"Rajiv Gandhi Proudyogiki Vishwavidyalaya, Bhopal",UNDER GRADUATE,CIVIL ENGINEERING,1st Shift,FULL TIME,120,,
1-7002313446,MALWA INSTITUTE OF TECHNOLOGY,NIPANIA BYPASS ROAD,INDORE,Private-Self Financing,N,N,1-10811151,MALWA INSTITUTE OF TECHNOLOGY,Madhya Pradesh,ENGINEERING AND TECHNOLOGY,"Rajiv Gandhi Proudyogiki Vishwavidyalaya, Bhopal",UNDER GRADUATE,COMPUTER SCIENCE AND ENGINEERING,1st Shift,FULL TIME,120,,
1-7002313446,MALWA INSTITUTE OF TECHNOLOGY,NIPANIA BYPASS ROAD,INDORE,Private-Self Financing,N,N,1-10811151,MALWA INSTITUTE OF TECHNOLOGY,Madhya Pradesh,ENGINEERING AND TECHNOLOGY,"Rajiv Gandhi Proudyogiki Vishwavidyalaya, Bhopal",UNDER GRADUATE,ELECTRICAL AND ELECTRONICS ENGINEERING,1st Shift,FULL TIME,60,,
1-7002313446,MALWA INSTITUTE OF TECHNOLOGY,NIPANIA BYPASS ROAD,INDORE,Private-Self Financing,N,N,1-10811151,MALWA INSTITUTE OF TECHNOLOGY,Madhya Pradesh,ENGINEERING AND TECHNOLOGY,"Rajiv Gandhi Proudyogiki Vishwavidyalaya, Bhopal",UNDER GRADUATE,ELECTRONICS & COMMUNICATION ENGG,1st Shift,FULL TIME,60,,
1-7002313446,MALWA INSTITUTE OF TECHNOLOGY,NIPANIA BYPASS ROAD,INDORE,Private-Self Financing,N,N,1-10811151,MALWA INSTITUTE OF TECHNOLOGY,Madhya Pradesh,ENGINEERING AND TECHNOLOGY,"Rajiv Gandhi Proudyogiki Vishwavidyalaya, Bhopal",UNDER GRADUATE,INFORMATION TECHNOLOGY,1st Shift,FULL TIME,60,,
1-7002313446,MALWA INSTITUTE OF TECHNOLOGY,NIPANIA BYPASS ROAD,INDORE,Private-Self Financing,N,N,1-10811151,MALWA INSTITUTE OF TECHNOLOGY,Madhya Pradesh,ENGINEERING AND TECHNOLOGY,"Rajiv Gandhi Proudyogiki Vishwavidyalaya, Bhopal",UNDER GRADUATE,MECHANICAL ENGINEERING,1st Shift,FULL TIME,120,,
1-7002313446,MALWA INSTITUTE OF TECHNOLOGY,NIPANIA BYPASS ROAD,INDORE,Private-Self Financing,N,N,1-10811151,MALWA INSTITUTE OF TECHNOLOGY,Madhya Pradesh,MANAGEMENT,"Devi Ahilya Vishwavidyalaya, Indore",POST GRADUATE,MBA,1st Shift,FULL TIME,60,,
1-7002356601,ST. ALOYSIUS INSTITUTE OF TECHNOLOGY,"NEAR EKTA MARKET, GAUR BRIDGE, GOURIYA GHAT, MANDLA ROAD, JABALPUR. M.P.",JABALPUR,Private-Self Financing,N,Y,1-2944881,ST. ALOYSIUS INSTITUTE OF TECHNOLOGY,Madhya Pradesh,ENGINEERING AND TECHNOLOGY,"Rajiv Gandhi Proudyogiki Vishwavidyalaya, Bhopal",DIPLOMA,CIVIL ENGINEERING,1st Shift,FULL TIME,60,,
1-7002356601,ST. ALOYSIUS INSTITUTE OF TECHNOLOGY,"NEAR EKTA MARKET, GAUR BRIDGE, GOURIYA GHAT, MANDLA ROAD, JABALPUR. M.P.",JABALPUR,Private-Self Financing,N,Y,1-2944881,ST. ALOYSIUS INSTITUTE OF TECHNOLOGY,Madhya Pradesh,ENGINEERING AND TECHNOLOGY,"Rajiv Gandhi Proudyogiki Vishwavidyalaya, Bhopal",DIPLOMA,MECHANICAL ENGINEERING,1st Shift,FULL TIME,60,,
1-7002356601,ST. ALOYSIUS INSTITUTE OF TECHNOLOGY,"NEAR EKTA MARKET, GAUR BRIDGE, GOURIYA GHAT, MANDLA ROAD, JABALPUR. M.P.",JABALPUR,Private-Self Financing,N,Y,1-2944881,ST. ALOYSIUS INSTITUTE OF TECHNOLOGY,Madhya Pradesh,ENGINEERING AND TECHNOLOGY,"Rajiv Gandhi Proudyogiki Vishwavidyalaya, Bhopal",UNDER GRADUATE,CIVIL ENGINEERING,1st Shift,FULL TIME,60,,
1-7002356601,ST. ALOYSIUS INSTITUTE OF TECHNOLOGY,"NEAR EKTA MARKET, GAUR BRIDGE, GOURIYA GHAT, MANDLA ROAD, JABALPUR. M.P.",JABALPUR,Private-Self Financing,N,Y,1-2944881,ST. ALOYSIUS INSTITUTE OF TECHNOLOGY,Madhya Pradesh,ENGINEERING AND TECHNOLOGY,"Rajiv Gandhi Proudyogiki Vishwavidyalaya, Bhopal",UNDER GRADUATE,COMPUTER SCIENCE AND ENGINEERING,1st Shift,FULL TIME,60,,
1-7002356601,ST. ALOYSIUS INSTITUTE OF TECHNOLOGY,"NEAR EKTA MARKET, GAUR BRIDGE, GOURIYA GHAT, MANDLA ROAD, JABALPUR. M.P.",JABALPUR,Private-Self Financing,N,Y,1-2944881,ST. ALOYSIUS INSTITUTE OF TECHNOLOGY,Madhya Pradesh,ENGINEERING AND TECHNOLOGY,"Rajiv Gandhi Proudyogiki Vishwavidyalaya, Bhopal",UNDER GRADUATE,ELECTRICAL AND ELECTRONICS ENGINEERING,1st Shift,FULL TIME,30,,
1-7002356601,ST. ALOYSIUS INSTITUTE OF TECHNOLOGY,"NEAR EKTA MARKET, GAUR BRIDGE, GOURIYA GHAT, MANDLA ROAD, JABALPUR. M.P.",JABALPUR,Private-Self Financing,N,Y,1-2944881,ST. ALOYSIUS INSTITUTE OF TECHNOLOGY,Madhya Pradesh,ENGINEERING AND TECHNOLOGY,"Rajiv Gandhi Proudyogiki Vishwavidyalaya, Bhopal",UNDER GRADUATE,MECHANICAL ENGINEERING,1st Shift,FULL TIME,60,,
1-7002357265,TECHNOCRATS INSTITUTE OF TECHNOLOGY,"IN FRONT OF HATHAIKHEDA DAM, POST PIPLANI, P.B. NO. 24, BHEL",BHOPAL,Private-Self Financing,N,N,1-8726441,TECHNOCRATS INSTITUTE OF TECHNOLOGY,Madhya Pradesh,ENGINEERING AND TECHNOLOGY,"Rajiv Gandhi Proudyogiki Vishwavidyalaya, Bhopal",POST GRADUATE,COMPUTER SCIENCE AND ENGINEERING,1st Shift,FULL TIME,24,,
1-7002357265,TECHNOCRATS INSTITUTE OF TECHNOLOGY,"IN FRONT OF HATHAIKHEDA DAM, POST PIPLANI, P.B. NO. 24, BHEL",BHOPAL,Private-Self Financing,N,N,1-8726441,TECHNOCRATS INSTITUTE OF TECHNOLOGY,Madhya Pradesh,ENGINEERING AND TECHNOLOGY,"Rajiv Gandhi Proudyogiki Vishwavidyalaya, Bhopal",POST GRADUATE,DIGITAL COMMUNICATIONS,1st Shift,FULL TIME,24,,
1-7002357265,TECHNOCRATS INSTITUTE OF TECHNOLOGY,"IN FRONT OF HATHAIKHEDA DAM, POST PIPLANI, P.B. NO. 24, BHEL",BHOPAL,Private-Self Financing,N,N,1-8726441,TECHNOCRATS INSTITUTE OF TECHNOLOGY,Madhya Pradesh,ENGINEERING AND TECHNOLOGY,"Rajiv Gandhi Proudyogiki Vishwavidyalaya, Bhopal",POST GRADUATE,HEAT POWER AND THERMAL ENGINEERING,1st Shift,FULL TIME,30,,
1-7002357265,TECHNOCRATS INSTITUTE OF TECHNOLOGY,"IN FRONT OF HATHAIKHEDA DAM, POST PIPLANI, P.B. NO. 24, BHEL",BHOPAL,Private-Self Financing,N,N,1-8726441,TECHNOCRATS INSTITUTE OF TECHNOLOGY,Madhya Pradesh,ENGINEERING AND TECHNOLOGY,"Rajiv Gandhi Proudyogiki Vishwavidyalaya, Bhopal",POST GRADUATE,MICRO ELECTRONICS & VLSI DESIGN,1st Shift,FULL TIME,30,,
1-7002357265,TECHNOCRATS INSTITUTE OF TECHNOLOGY,"IN FRONT OF HATHAIKHEDA DAM, POST PIPLANI, P.B. NO. 24, BHEL",BHOPAL,Private-Self Financing,N,N,1-8726441,TECHNOCRATS INSTITUTE OF TECHNOLOGY,Madhya Pradesh,ENGINEERING AND TECHNOLOGY,"Rajiv Gandhi Proudyogiki Vishwavidyalaya, Bhopal",POST GRADUATE,POWER ELECTRONICS,1st Shift,FULL TIME,18,,
1-7002357265,TECHNOCRATS INSTITUTE OF TECHNOLOGY,"IN FRONT OF HATHAIKHEDA DAM, POST PIPLANI, P.B. NO. 24, BHEL",BHOPAL,Private-Self Financing,N,N,1-8726441,TECHNOCRATS INSTITUTE OF TECHNOLOGY,Madhya Pradesh,ENGINEERING AND TECHNOLOGY,"Rajiv Gandhi Proudyogiki Vishwavidyalaya, Bhopal",POST GRADUATE,POWER SYSTEMS,1st Shift,FULL TIME,30,,
1-7002357265,TECHNOCRATS INSTITUTE OF TECHNOLOGY,"IN FRONT OF HATHAIKHEDA DAM, POST PIPLANI, P.B. NO. 24, BHEL",BHOPAL,Private-Self Financing,N,N,1-8726441,TECHNOCRATS INSTITUTE OF TECHNOLOGY,Madhya Pradesh,ENGINEERING AND TECHNOLOGY,"Rajiv Gandhi Proudyogiki Vishwavidyalaya, Bhopal",UNDER GRADUATE,CIVIL ENGINEERING,1st Shift,FULL TIME,120,,
1-7002357265,TECHNOCRATS INSTITUTE OF TECHNOLOGY,"IN FRONT OF HATHAIKHEDA DAM, POST PIPLANI, P.B. NO. 24, BHEL",BHOPAL,Private-Self Financing,N,N,1-8726441,TECHNOCRATS INSTITUTE OF TECHNOLOGY,Madhya Pradesh,ENGINEERING AND TECHNOLOGY,"Rajiv Gandhi Proudyogiki Vishwavidyalaya, Bhopal",UNDER GRADUATE,COMPUTER SCIENCE AND ENGINEERING,1st Shift,FULL TIME,180,,
1-7002357265,TECHNOCRATS INSTITUTE OF TECHNOLOGY,"IN FRONT OF HATHAIKHEDA DAM, POST PIPLANI, P.B. NO. 24, BHEL",BHOPAL,Private-Self Financing,N,N,1-8726441,TECHNOCRATS INSTITUTE OF TECHNOLOGY,Madhya Pradesh,ENGINEERING AND TECHNOLOGY,"Rajiv Gandhi Proudyogiki Vishwavidyalaya, Bhopal",UNDER GRADUATE,COMPUTER SCIENCE AND ENGINEERING(ARTIFICIAL INTELLIGENCE AND MACHINE LEARNING),1st Shift,FULL TIME,60,,
1-7002357265,TECHNOCRATS INSTITUTE OF TECHNOLOGY,"IN FRONT OF HATHAIKHEDA DAM, POST PIPLANI, P.B. NO. 24, BHEL",BHOPAL,Private-Self Financing,N,N,1-8726441,TECHNOCRATS INSTITUTE OF TECHNOLOGY,Madhya Pradesh,ENGINEERING AND TECHNOLOGY,"Rajiv Gandhi Proudyogiki Vishwavidyalaya, Bhopal",UNDER GRADUATE,ELECTRICAL AND ELECTRONICS ENGINEERING,1st Shift,FULL TIME,120,,
1-7002357265,TECHNOCRATS INSTITUTE OF TECHNOLOGY,"IN FRONT OF HATHAIKHEDA DAM, POST PIPLANI, P.B. NO. 24, BHEL",BHOPAL,Private-Self Financing,N,N,1-8726441,TECHNOCRATS INSTITUTE OF TECHNOLOGY,Madhya Pradesh,ENGINEERING AND TECHNOLOGY,"Rajiv Gandhi Proudyogiki Vishwavidyalaya, Bhopal",UNDER GRADUATE,ELECTRONICS & COMMUNICATION ENGG,1st Shift,FULL TIME,120,,
1-7002357265,TECHNOCRATS INSTITUTE OF TECHNOLOGY,"IN FRONT OF HATHAIKHEDA DAM, POST PIPLANI, P.B. NO. 24, BHEL",BHOPAL,Private-Self Financing,N,N,1-8726441,TECHNOCRATS INSTITUTE OF TECHNOLOGY,Madhya Pradesh,ENGINEERING AND TECHNOLOGY,"Rajiv Gandhi Proudyogiki Vishwavidyalaya, Bhopal",UNDER GRADUATE,INFORMATION TECHNOLOGY,1st Shift,FULL TIME,120,,
1-7002357265,TECHNOCRATS INSTITUTE OF TECHNOLOGY,"IN FRONT OF HATHAIKHEDA DAM, POST PIPLANI, P.B. NO. 24, BHEL",BHOPAL,Private-Self Financing,N,N,1-8726441,TECHNOCRATS INSTITUTE OF TECHNOLOGY,Madhya Pradesh,ENGINEERING AND TECHNOLOGY,"Rajiv Gandhi Proudyogiki Vishwavidyalaya, Bhopal",UNDER GRADUATE,MECHANICAL ENGINEERING,1st Shift,FULL TIME,180,,
1-7002357265,TECHNOCRATS INSTITUTE OF TECHNOLOGY,"IN FRONT OF HATHAIKHEDA DAM, POST PIPLANI, P.B. NO. 24, BHEL",BHOPAL,Private-Self Financing,N,N,1-8726441,TECHNOCRATS INSTITUTE OF TECHNOLOGY,Madhya Pradesh,MANAGEMENT,"Barkatullah University, Bhopal",POST GRADUATE,MBA,1st Shift,FULL TIME,120,,
1-7002357265,TECHNOCRATS INSTITUTE OF TECHNOLOGY,"IN FRONT OF HATHAIKHEDA DAM, POST PIPLANI, P.B. NO. 24, BHEL",BHOPAL,Private-Self Financing,N,N,1-8726441,TECHNOCRATS INSTITUTE OF TECHNOLOGY,Madhya Pradesh,MCA,"Rajiv Gandhi Proudyogiki Vishwavidyalaya, Bhopal",POST GRADUATE,MASTERS IN COMPUTER APPLICATIONS,1st Shift,FULL TIME,60,,
1-7002394231,SYNERGY INSTITUTE OF TECHNOLOGY. DEWAS,"MAXI ROAD, VILLAGE RAJPURA, DEWAS (M.P.)",DEWAS,Private-Self Financing,N,N,1-7387191,SYNERGY INSTITUTE OF TECHNOLOGY. DEWAS,Madhya Pradesh,ENGINEERING AND TECHNOLOGY,"Rajiv Gandhi Proudyogiki Vishwavidyalaya, Bhopal",UNDER GRADUATE,CIVIL ENGINEERING,1st Shift,FULL TIME,30,,
1-7002394231,SYNERGY INSTITUTE OF TECHNOLOGY. DEWAS,"MAXI ROAD, VILLAGE RAJPURA, DEWAS (M.P.)",DEWAS,Private-Self Financing,N,N,1-7387191,SYNERGY INSTITUTE OF TECHNOLOGY. DEWAS,Madhya Pradesh,ENGINEERING AND TECHNOLOGY,"Rajiv Gandhi Proudyogiki Vishwavidyalaya, Bhopal",UNDER GRADUATE,COMPUTER SCIENCE AND ENGINEERING,1st Shift,FULL TIME,30,,
1-7002394231,SYNERGY INSTITUTE OF TECHNOLOGY. DEWAS,"MAXI ROAD, VILLAGE RAJPURA, DEWAS (M.P.)",DEWAS,Private-Self Financing,N,N,1-7387191,SYNERGY INSTITUTE OF TECHNOLOGY. DEWAS,Madhya Pradesh,ENGINEERING AND TECHNOLOGY,"Rajiv Gandhi Proudyogiki Vishwavidyalaya, Bhopal",UNDER GRADUATE,ELECTRICAL AND ELECTRONICS ENGINEERING,1st Shift,FULL TIME,30,,
1-7002394231,SYNERGY INSTITUTE OF TECHNOLOGY. DEWAS,"MAXI ROAD, VILLAGE RAJPURA, DEWAS (M.P.)",DEWAS,Private-Self Financing,N,N,1-7387191,SYNERGY INSTITUTE OF TECHNOLOGY. DEWAS,Madhya Pradesh,ENGINEERING AND TECHNOLOGY,"Rajiv Gandhi Proudyogiki Vishwavidyalaya, Bhopal",UNDER GRADUATE,ELECTRONICS & COMMUNICATION ENGG,1st Shift,FULL TIME,60,,
1-7002394231,SYNERGY INSTITUTE OF TECHNOLOGY. DEWAS,"MAXI ROAD, VILLAGE RAJPURA, DEWAS (M.P.)",DEWAS,Private-Self Financing,N,N,1-7387191,SYNERGY INSTITUTE OF TECHNOLOGY. DEWAS,Madhya Pradesh,ENGINEERING AND TECHNOLOGY,"Rajiv Gandhi Proudyogiki Vishwavidyalaya, Bhopal",UNDER GRADUATE,MECHANICAL ENGINEERING,1st Shift,FULL TIME,60,,
1-7002394231,SYNERGY INSTITUTE OF TECHNOLOGY. DEWAS,"MAXI ROAD, VILLAGE RAJPURA, DEWAS (M.P.)",DEWAS,Private-Self Financing,N,N,1-7387191,SYNERGY INSTITUTE OF TECHNOLOGY. DEWAS,Madhya Pradesh,MANAGEMENT,"Vikram University, Ujjain",POST GRADUATE,MBA,1st Shift,FULL TIME,60,,
1-7002472823,VINDHYA INSTITUTE OF TECHNOLOGY AND SCIENCE,"KARHI ROAD
AMOUDHA SATNA",SATNA,Private-Self Financing,N,N,1-5872421,VINDHYA INSTITUTE OF TECHNOLOGY AND SCIENCE,Madhya Pradesh,ENGINEERING AND TECHNOLOGY,"Rajiv Gandhi Proudyogiki Vishwavidyalaya, Bhopal",DIPLOMA,ELECTRICAL ENGINEERING,1st Shift,FULL TIME,60,,
1-7002472823,VINDHYA INSTITUTE OF TECHNOLOGY AND SCIENCE,"KARHI ROAD
AMOUDHA SATNA",SATNA,Private-Self Financing,N,N,1-5872421,VINDHYA INSTITUTE OF TECHNOLOGY AND SCIENCE,Madhya Pradesh,ENGINEERING AND TECHNOLOGY,"Rajiv Gandhi Proudyogiki Vishwavidyalaya, Bhopal",DIPLOMA,MECHANICAL ENGINEERING,1st Shift,FULL TIME,60,,
1-7002472823,VINDHYA INSTITUTE OF TECHNOLOGY AND SCIENCE,"KARHI ROAD
AMOUDHA SATNA",SATNA,Private-Self Financing,N,N,1-5872421,VINDHYA INSTITUTE OF TECHNOLOGY AND SCIENCE,Madhya Pradesh,ENGINEERING AND TECHNOLOGY,"Rajiv Gandhi Proudyogiki Vishwavidyalaya, Bhopal",POST GRADUATE,ADVANCED PRODUCTION SYSTEMS,1st Shift,FULL TIME,18,,
1-7002472823,VINDHYA INSTITUTE OF TECHNOLOGY AND SCIENCE,"KARHI ROAD
AMOUDHA SATNA",SATNA,Private-Self Financing,N,N,1-5872421,VINDHYA INSTITUTE OF TECHNOLOGY AND SCIENCE,Madhya Pradesh,ENGINEERING AND TECHNOLOGY,"Rajiv Gandhi Proudyogiki Vishwavidyalaya, Bhopal",POST GRADUATE,COMPUTER SCEINCE & ENGINEERING,1st Shift,FULL TIME,18,,
1-7002472823,VINDHYA INSTITUTE OF TECHNOLOGY AND SCIENCE,"KARHI ROAD
AMOUDHA SATNA",SATNA,Private-Self Financing,N,N,1-5872421,VINDHYA INSTITUTE OF TECHNOLOGY AND SCIENCE,Madhya Pradesh,ENGINEERING AND TECHNOLOGY,"Rajiv Gandhi Proudyogiki Vishwavidyalaya, Bhopal",POST GRADUATE,DIGITAL COMMUNICATION,1st Shift,FULL TIME,18,,
1-7002472823,VINDHYA INSTITUTE OF TECHNOLOGY AND SCIENCE,"KARHI ROAD
AMOUDHA SATNA",SATNA,Private-Self Financing,N,N,1-5872421,VINDHYA INSTITUTE OF TECHNOLOGY AND SCIENCE,Madhya Pradesh,ENGINEERING AND TECHNOLOGY,"Rajiv Gandhi Proudyogiki Vishwavidyalaya, Bhopal",UNDER GRADUATE,COMPUTER SCIENCE AND ENGINEERING,1st Shift,FULL TIME,120,,
1-7002472823,VINDHYA INSTITUTE OF TECHNOLOGY AND SCIENCE,"KARHI ROAD
AMOUDHA SATNA",SATNA,Private-Self Financing,N,N,1-5872421,VINDHYA INSTITUTE OF TECHNOLOGY AND SCIENCE,Madhya Pradesh,ENGINEERING AND TECHNOLOGY,"Rajiv Gandhi Proudyogiki Vishwavidyalaya, Bhopal",UNDER GRADUATE,ELECTRICAL ENGINEERING,1st Shift,FULL TIME,60,,
1-7002472823,VINDHYA INSTITUTE OF TECHNOLOGY AND SCIENCE,"KARHI ROAD
AMOUDHA SATNA",SATNA,Private-Self Financing,N,N,1-5872421,VINDHYA INSTITUTE OF TECHNOLOGY AND SCIENCE,Madhya Pradesh,ENGINEERING AND TECHNOLOGY,"Rajiv Gandhi Proudyogiki Vishwavidyalaya, Bhopal",UNDER GRADUATE,ELECTRONICS & COMMUNICATION ENGG,1st Shift,FULL TIME,60,,
1-7002472823,VINDHYA INSTITUTE OF TECHNOLOGY AND SCIENCE,"KARHI ROAD
AMOUDHA SATNA",SATNA,Private-Self Financing,N,N,1-5872421,VINDHYA INSTITUTE OF TECHNOLOGY AND SCIENCE,Madhya Pradesh,ENGINEERING AND TECHNOLOGY,"Rajiv Gandhi Proudyogiki Vishwavidyalaya, Bhopal",UNDER GRADUATE,MECHANICAL ENGINEERING,1st Shift,FULL TIME,180,,
1-7002472823,VINDHYA INSTITUTE OF TECHNOLOGY AND SCIENCE,"KARHI ROAD
AMOUDHA SATNA",SATNA,Private-Self Financing,N,N,1-5872421,VINDHYA INSTITUTE OF TECHNOLOGY AND SCIENCE,Madhya Pradesh,MCA,"Rajiv Gandhi Proudyogiki Vishwavidyalaya, Bhopal",POST GRADUATE,MASTERS IN COMPUTER APPLICATIONS,1st Shift,FULL TIME,60,,
